Coordinates
version=1
nRows=121
nColumns=36
inDegrees=yes

Units are S.I. units (second, meters, Newtons, ...)
If the header above contains a line with 'inDegrees', this indicates whether rotational values are in degrees (yes) or radians (no).

endheader
time	pelvis_tilt	pelvis_list	pelvis_rotation	pelvis_tx	pelvis_ty	pelvis_tz	hip_flexion_r	hip_adduction_r	hip_rotation_r	knee_angle_r	knee_angle_r_beta	ankle_angle_r	subtalar_angle_r	mtp_angle_r	hip_flexion_l	hip_adduction_l	hip_rotation_l	knee_angle_l	knee_angle_l_beta	ankle_angle_l	subtalar_angle_l	mtp_angle_l	lumbar_extension	lumbar_bending	lumbar_rotation	arm_flex_r	arm_add_r	arm_rot_r	elbow_flex_r	pro_sup_r	arm_flex_l	arm_add_l	arm_rot_l	elbow_flex_l	pro_sup_l
      0.00000000	     -6.84255641	     -1.70448907	      8.29132793	     -0.16918437	      0.86316673	     -0.18482040	     36.58039177	     -0.49142221	     -8.66306371	     11.52397278	      0.20113127	      1.06952701	     -2.28974219	     -7.09179208	    -13.83655316	     -3.04773921	      3.26376843	     15.51305758	      0.27075393	     18.22731325	      3.99879473	     -7.09179208	      1.35640555	      1.86518519	    -12.51090165	     -5.45472188	     -9.08568114	    -43.80070159	      6.83666790	     97.27648129	     20.84943206	    -12.70169311	      9.29894096	     43.87710991	     96.35893098
      0.01000000	     -6.64471827	     -2.20386357	      8.29660857	     -0.15158049	      0.86333130	     -0.18398425	     36.55758205	      0.08607378	     -8.62054875	     13.39670681	      0.23381664	      0.53432940	     -2.58239935	     -7.09686240	    -13.86019112	     -3.86910774	      2.65517109	     17.46199349	      0.30476928	     16.49745019	      3.92381824	     -7.09686240	      1.35623210	      2.63259407	    -12.54092997	     -5.60950409	     -9.31790350	    -43.88489862	      7.16677995	     97.12442642	     20.47202243	    -12.44028126	      9.34194125	     43.67400943	     96.26234210
      0.02000000	     -6.77945716	     -2.72626085	      8.22440182	     -0.13353266	      0.86336802	     -0.18290900	     36.82009474	      0.77559540	     -7.95102457	     15.21053430	      0.26547390	     -0.28715359	     -3.99456157	     -7.11041669	    -13.30716415	     -4.63576147	      2.13087570	     19.74715829	      0.34465293	     14.37852910	      3.44152336	     -7.11041669	      2.01557669	      3.28658073	    -12.39620573	     -5.62214729	     -9.70962455	    -44.46140215	      6.45007482	     96.93714352	     20.04896277	    -11.88419898	      9.03717547	     42.67881066	     96.31780903
      0.03000000	     -6.44911064	     -3.22904137	      8.19680187	     -0.11544897	      0.86450322	     -0.18193370	     36.42134562	      1.48813529	     -7.64266358	     16.81823900	      0.29353364	     -0.79815115	     -4.79687517	     -7.20810400	    -13.11393297	     -5.46359277	      1.54795247	     22.08737928	      0.38549749	     11.61544276	      3.00771879	     -7.20810400	      1.98240187	      4.01046217	    -12.41417454	     -5.51410996	     -9.86948229	    -44.78803438	      6.44825759	     92.17517936	     19.52985547	    -11.51765990	      9.04786558	     41.98009177	     92.34056937
      0.04000000	     -6.55648520	     -3.69526333	      8.07634615	     -0.09720025	      0.86533321	     -0.18096273	     36.45949449	      2.14542541	     -7.34371209	     18.45780897	      0.32214954	     -0.97858481	     -5.32223885	     -7.30646937	    -12.20670175	     -6.17242488	      0.99512408	     24.77697938	      0.43243987	      8.40794287	      2.43033595	     -7.30646937	      2.57073520	      4.54044444	    -11.97939098	     -5.72457817	    -10.04786312	    -47.96598762	      6.35360365	     96.31989881	     19.08882526	    -10.84110562	      8.14175528	     40.82823673	     99.47119161
      0.05000000	     -6.37991188	     -4.14213440	      8.00129494	     -0.07916571	      0.86692249	     -0.18021989	     36.01061087	      2.84709630	     -7.06381319	     19.79873746	      0.34555316	     -1.06569707	     -5.97191349	     -7.32244477	    -11.42461476	     -6.89309087	      0.54191236	     27.57639283	      0.48129885	      4.79315031	      1.73754855	     -7.32244477	      2.75556011	      5.12553665	    -11.90252709	     -5.64847800	    -10.27122038	    -48.12998084	      6.21109045	     95.38809869	     18.35357180	    -10.47433386	      7.91152531	     40.10125008	     98.34854745
      0.06000000	     -6.26641573	     -4.53917505	      7.91365404	     -0.06135758	      0.86869745	     -0.17961417	     35.50140197	      3.51619417	     -6.80666379	     20.95494762	      0.36573283	     -0.94644749	     -6.50128697	     -7.33678091	    -10.38475818	     -7.52947150	      0.19360012	     30.53080297	      0.53286304	      0.95553758	      0.93459252	     -7.33678091	      3.03714197	      5.61338218	    -11.76780630	     -5.58708436	    -10.46291559	    -48.27787495	      6.08745604	     94.68191430	     17.58781268	    -10.10889407	      7.69502555	     39.23218607	     97.62645374
      0.07000000	     -6.16220630	     -4.84118948	      7.84395838	     -0.04400165	      0.87064008	     -0.17919518	     34.87938058	      4.09448023	     -6.57682553	     21.93025572	      0.38275517	     -0.60735676	     -7.00001103	     -7.34822970	     -9.15595547	     -8.03639547	     -0.01779596	     33.57503560	      0.58599492	     -2.93188988	      0.08703340	     -7.34822970	      3.29356975	      5.99134878	    -11.60520417	     -5.52273026	    -10.59694559	    -48.39602286	      6.04712342	     94.33756835	     16.78888998	     -9.74035362	      7.45576773	     38.27547455	     97.38875730
      0.08000000	     -6.07416821	     -5.14206229	      7.74473237	     -0.02700871	      0.87258872	     -0.17880697	     34.10068572	      4.71584759	     -6.31175691	     22.58601576	      0.39420034	     -0.18493982	     -7.33062216	     -7.36074858	     -7.74672203	     -8.51435348	     -0.19274829	     36.70409094	      0.64060724	     -6.57958435	     -0.76576399	     -7.36074858	      3.56473315	      6.32938000	    -11.36782698	     -5.49772999	    -10.73721986	    -48.53141294	      6.08027447	     94.31051110	     15.98328684	     -9.38745736	      7.15316428	     37.25585136	     97.61929837
      0.09000000	     -5.85348635	     -5.35909884	      7.66620588	     -0.01059218	      0.87460802	     -0.17846347	     33.05953912	      5.27136385	     -6.08033170	     23.02134024	      0.40179819	      0.28296408	     -7.69664759	     -7.36692532	     -6.35240446	     -8.88053455	     -0.27381088	     39.78290733	      0.69434272	     -9.86022827	     -1.63056210	     -7.36692532	      3.51893113	      6.63662399	    -11.12457948	     -5.38309031	    -10.77900263	    -48.49179089	      6.35663828	     93.94500928	     15.08772012	     -9.16094200	      7.05888620	     36.65970109	     97.31494018
      0.10000000	     -5.71555019	     -5.41695836	      7.51616704	      0.00549756	      0.87632061	     -0.17769745	     31.98866396	      5.73345166	     -5.68623677	     23.29252677	      0.40653128	      1.17628603	     -7.84997357	     -7.37293924	     -4.82167519	     -9.08740241	     -0.44121623	     42.71365133	      0.74549385	    -12.44238348	     -1.74267802	     -7.37293924	      3.47377804	      6.66527253	    -10.71481996	     -5.50615742	    -10.50846635	    -48.34089395	      7.42759131	     93.20506807	     14.04711146	     -9.11478882	      7.00290841	     36.51616456	     96.52024620
      0.11000000	     -5.69091791	     -5.42786944	      7.52827873	      0.02100435	      0.87764820	     -0.17742567	     30.96576990	      5.98484769	     -5.48012964	     23.41616289	      0.40868914	      1.67136139	     -8.17783414	     -7.37749646	     -3.00450498	     -9.02245898	     -0.13101150	     45.52578414	      0.79457483	    -14.97702703	     -3.33654881	     -7.37749646	      3.66915455	      6.71515083	    -10.52099379	     -5.05669844	    -10.70089296	    -48.30257063	      6.64362134	     93.37677073	     13.36868519	     -8.78808030	      6.76548168	     34.61974376	     96.86304059
      0.12000000	     -5.77399291	     -5.34957339	      7.40392663	      0.03624879	      0.87846521	     -0.17660556	     29.98272181	      6.22275516	     -5.09020049	     23.41997275	      0.40875564	      2.50567576	     -8.21464147	     -7.38466195	     -1.05427977	     -8.87044824	     -0.02939049	     48.13978681	      0.84019778	    -16.57550050	     -4.00224203	     -7.38466195	      4.06684148	      6.53120527	    -10.06671688	     -4.87458776	    -10.73044786	    -47.92346005	      6.69785710	     93.79274920	     12.69353086	     -8.49294862	      6.50664326	     33.08916398	     97.52731477
      0.13000000	     -5.72033085	     -5.24169214	      7.31122561	      0.05118852	      0.87922318	     -0.17560352	     28.75348644	      6.43409203	     -4.72909963	     23.21581390	      0.40519239	      3.24203493	     -8.31155504	     -7.41128844	      0.76404850	     -8.66615181	      0.10240612	     50.42232576	      0.88003560	    -17.56748731	     -4.62990815	     -7.41128844	      4.05341085	      6.36356304	     -9.51033735	     -4.76845738	    -10.67761978	    -46.64919446	      7.04963587	     96.48873708	     11.92709543	     -8.31321043	      5.75207783	     32.16112451	    101.05644051
      0.14000000	     -5.59843726	     -5.01359620	      7.11613889	      0.06615646	      0.88001583	     -0.17423077	     27.32306155	      6.60571277	     -4.16361009	     22.82168472	      0.39831354	      4.02491985	     -8.32274068	     -7.41312016	      2.38434817	     -8.33567597	      0.08846961	     52.20669976	      0.91117880	    -18.02312925	     -4.92760378	     -7.41312016	      3.88092934	      6.05568875	     -8.89225043	     -4.48652175	    -10.42841343	    -46.53897540	      7.56294604	     96.14942528	     10.90510545	     -8.41025571	      5.71040599	     31.85694833	    100.65286767
      0.15000000	     -5.74166573	     -4.85296872	      7.00775861	      0.08094568	      0.88028821	     -0.17322424	     26.20808298	      6.69636289	     -3.80368670	     22.45966283	      0.39199507	      4.73743276	     -8.42596740	     -7.41703551	      4.38361777	     -7.90657203	      0.33796308	     53.78578792	      0.93873909	    -18.18931876	     -5.86002739	     -7.41703551	      4.18507851	      5.83934061	     -8.41762858	     -4.01889112	    -10.43687709	    -46.12842871	      7.42747511	     96.49355428	     10.37231914	     -8.18312585	      5.29803594	     29.73890966	    100.86764854
      0.16000000	     -5.69840811	     -4.56698531	      6.81153121	      0.09586414	      0.88095824	     -0.17191581	     24.75864285	      6.74234040	     -3.29536197	     21.87877849	      0.38185672	      5.44019860	     -8.41640594	     -7.41846946	      6.02310485	     -7.39892296	      0.42587629	     54.83625709	      0.95707324	    -17.79703406	     -6.24102223	     -7.41846946	      4.03871582	      5.46936477	     -7.67191514	     -3.65282601	    -10.17667840	    -45.96353058	      7.92603022	     96.23937299	      9.40639354	     -8.32994188	      5.26750124	     29.46169169	    100.54947132
      0.17000000	     -5.67030543	     -4.38561845	      6.62552087	      0.11075804	      0.88161576	     -0.17080132	     23.31243711	      6.86549567	     -2.78608520	     21.23611926	      0.37064020	      6.05954484	     -8.50521499	     -7.42028334	      7.68112618	     -6.94354164	      0.60640950	     55.60919308	      0.97056351	    -16.88818436	     -6.85992612	     -7.42028334	      3.96528758	      5.26919423	     -7.05386314	     -3.07933315	    -10.11089836	    -45.42788436	      8.01332302	     96.53000859	      8.82242975	     -8.30409359	      5.05104082	     27.84424223	    100.69731181
      0.18000000	     -5.71315190	     -4.04787034	      6.40687995	      0.12559940	      0.88239633	     -0.16961492	     21.87683852	      6.78642620	     -2.34481247	     20.51022263	      0.35797092	      6.71210114	     -8.47180861	     -7.42141809	      9.33256030	     -6.30025307	      0.74502462	     55.97451097	      0.97693951	    -15.85598371	     -7.34122344	     -7.42141809	      3.93725055	      4.82654733	     -6.21445795	     -2.59349002	     -9.89541829	    -45.21156585	      8.49569044	     96.35565513	      7.92070589	     -8.46775603	      5.00082483	     27.49795285	    100.44833628
      0.19000000	     -5.67363278	     -3.75059875	      6.05087989	      0.14027190	      0.88335098	     -0.16830697	     20.37213759	      6.77758292	     -1.80960369	     19.80553625	      0.34567182	      7.27804869	     -8.33772014	     -7.43558480	     10.81936216	     -5.71411143	      0.78673620	     56.00559145	      0.97748197	    -13.89187118	     -7.57816323	     -7.43558480	      3.88801521	      4.49256892	     -5.25255611	     -2.27498168	    -10.07754128	    -40.37021713	      8.71417561	     99.37736950	      7.67828940	     -8.36325180	      4.45628231	     25.12456020	    102.32434251
      0.20000000	     -5.75760423	     -3.41913068	      5.72971374	      0.15450484	      0.88422923	     -0.16699607	     18.95234151	      6.66950666	     -1.35041099	     18.98861273	      0.33141381	      7.79755177	     -8.19524004	     -7.43648055	     12.46160168	     -5.01966015	      0.93583373	     55.70250696	      0.97219215	    -12.09207934	     -8.23109559	     -7.43648055	      3.85762250	      4.09973305	     -4.42580007	     -1.68801998	     -9.92499230	    -40.21630752	      9.18332942	     99.19979646	      6.76129194	     -8.58917887	      4.36497932	     24.74904016	    102.10011361
      0.21000000	     -5.62174580	     -3.07460177	      5.30279790	      0.16815150	      0.88536023	     -0.16545343	     17.29972460	      6.56802950	     -0.86052900	     18.16396764	      0.31702104	      8.29182303	     -7.83472114	     -7.43889126	     13.85762478	     -4.45352743	      0.83494195	     55.06919166	      0.96113871	     -9.39355419	     -8.13741481	     -7.43889126	      3.53696261	      3.73506046	     -3.44534698	     -1.05946988	     -9.82698040	    -39.30516961	      9.83357898	     99.44182503	      6.26860671	     -8.63846349	      3.82973691	     23.27343039	    102.04153818
      0.22000000	     -5.61002872	     -2.73844779	      4.82587669	      0.18120733	      0.88624511	     -0.16399759	     15.80425295	      6.42025855	     -0.43167664	     17.35173078	      0.30284483	      8.76642959	     -7.41528013	     -7.44156339	     15.41711531	     -3.85512493	      0.75624689	     54.11651869	      0.94451143	     -6.73640522	     -8.36085542	     -7.44156339	      3.33500045	      3.37321080	     -2.34843850	     -0.54114581	     -9.79306469	    -38.02573510	     10.66146462	     99.76239347	      5.69113810	     -8.75070850	      3.40679812	     22.24889074	    102.01769864
      0.23000000	     -5.69037786	     -2.42007890	      4.25852901	      0.19364192	      0.88688174	     -0.16268355	     14.46447364	      6.26371516	      0.02093620	     16.59467894	      0.28963179	      9.17249839	     -6.95244550	     -7.45145153	     17.09195228	     -3.30134209	      0.58865130	     52.86550626	      0.92267714	     -4.06667353	     -8.70256663	     -7.45145153	      3.20232542	      3.03545137	     -1.45023939	     -0.00332510	    -10.04717241	    -33.72400188	     11.41687859	    100.81467439	      4.93495193	     -8.90722025	      2.72493106	     21.49464854	    102.56754409
      0.24000000	     -5.67429519	     -2.13960866	      3.62866706	      0.20564530	      0.88754474	     -0.16154215	     13.06523985	      6.13466213	      0.48230238	     15.88710270	      0.27728225	      9.63874921	     -6.38332497	     -7.45266802	     18.64082020	     -2.88139777	      0.31127634	     51.33503717	      0.89596542	     -1.46396369	     -8.77139775	     -7.45266802	      2.97884022	      2.75410721	     -0.46084986	      0.77120898	    -10.04704847	    -33.30816840	     12.16677406	    100.71019499	      4.15013718	     -9.15211437	      2.50619645	     20.92343675	    102.43961832
      0.25000000	     -5.56811621	     -1.95326294	      3.01407067	      0.21719378	      0.88823996	     -0.16089583	     11.63092391	      6.04969249	      0.75943917	     15.21101038	      0.26548221	     10.09752385	     -5.77465034	     -7.45450856	     20.08526829	     -2.60584441	      0.00591273	     49.65473962	      0.86663870	      0.93627799	     -8.67401152	     -7.45450856	      2.58708785	      2.60111937	      0.70218552	      1.36204389	    -10.18725058	    -32.23565268	     13.26255426	    100.76237944	      3.69126042	     -9.23775546	      2.10755637	     20.08531378	    102.36760044
      0.26000000	     -5.64618782	     -1.84183106	      2.35789377	      0.22855630	      0.88871272	     -0.16062333	     10.50079625	      6.02269587	      1.14468295	     14.66865277	      0.25601629	     10.45774343	     -5.38485652	     -7.45497120	     21.66045116	     -2.41849675	     -0.29308770	     47.84313730	      0.83502027	      2.61042250	     -8.93439709	     -7.45497120	      2.52839686	      2.52084238	      1.63392679	      2.24052710	    -10.34603047	    -31.85614037	     13.92971528	    100.77015311	      2.92115897	     -9.43954496	      2.00772087	     19.58194961	    102.34554200
      0.27000000	     -5.45112926	     -1.76663049	      1.67012119	      0.23975608	      0.88963655	     -0.16055642	      9.13711248	      6.01384354	      1.43604600	     14.17400576	      0.24738307	     11.18000604	     -4.71908360	     -7.45979351	     22.82550892	     -2.39294253	     -0.76507922	     45.96997336	      0.80232739	      4.05081693	     -8.43841545	     -7.45979351	      2.03269213	      2.49411758	      2.99064715	      2.38085903	    -10.83954810	    -27.73354848	     15.85645996	    101.04910278	      2.74701811	     -9.42945899	      1.27407190	     18.29663392	    102.49492674
      0.28000000	     -5.35680878	     -1.79150464	      1.04450772	      0.25090337	      0.89045635	     -0.16077288	      7.95724379	      6.07384264	      1.71197148	     13.74635739	      0.23991920	     11.84270805	     -4.26356506	     -7.46697241	     24.02933555	     -2.47455505	     -1.18404990	     44.12561701	      0.77013730	      5.03270384	     -7.98450519	     -7.46697241	      1.73932312	      2.60439545	      3.65686465	      3.32863970	    -11.39870680	    -24.14181738	     16.57758367	    100.25192014	      1.96358855	     -9.60564000	      0.70315993	     17.84358722	    102.80145926
      0.29000000	     -5.31872056	     -1.84057072	      0.41864705	      0.26203950	      0.89115930	     -0.16101538	      6.90511313	      6.13700291	      1.98666210	     13.36653410	      0.23329003	     12.55566576	     -3.94833740	     -7.46738356	     25.20154861	     -2.60155652	     -1.63761014	     42.29002625	      0.73810020	      5.55558747	     -7.60782912	     -7.46738356	      1.55946902	      2.74897412	      4.45164535	      4.33759798	    -11.64967841	    -23.90898672	     17.27989444	    100.20173507	      1.24651390	     -9.76825991	      0.60751184	     17.31303388	    102.83837579
      0.30000000	     -5.23845884	     -1.95513723	     -0.13900530	      0.27332221	      0.89175712	     -0.16122966	      5.81803296	      6.24499516	      2.22339305	     12.96656687	      0.22630928	     13.32497623	     -3.62940067	     -7.46765964	     26.23243740	     -2.80246228	     -2.04337194	     40.43286410	      0.70568660	      5.79307929	     -7.13471996	     -7.46765964	      1.38129884	      2.98435458	      5.24408691	      5.27207401	    -11.97730973	    -23.54732712	     18.09303394	    100.23949928	      0.63496887	     -9.88735418	      0.47812709	     16.69471653	    102.91305411
      0.31000000	     -4.98193639	     -2.07093686	     -0.64460120	      0.28469379	      0.89225289	     -0.16133933	      4.52061288	      6.30906153	      2.28152587	     12.50212582	      0.21820326	     14.26921334	     -2.99022252	     -7.47005929	     26.98870922	     -2.97242361	     -2.35691655	     38.52308678	      0.67235470	      5.95905226	     -6.51069532	     -7.47005929	      0.81217059	      3.18275810	      6.34726583	      5.41704627	    -12.66264334	    -20.88982498	     20.30964952	     99.99038645	      0.49434335	     -9.85631290	     -0.22193392	     15.63666511	    102.86772293
      0.32000000	     -4.97019974	     -2.23738432	     -1.16581826	      0.29636630	      0.89197622	     -0.16116860	      3.47611067	      6.44219603	      2.56457424	     12.04881588	      0.21029151	     14.99398035	     -2.72190837	     -7.47042586	     27.93431758	     -3.23182026	     -2.71563679	     36.53435178	      0.63764473	      5.83119319	     -5.98067788	     -7.47042586	      0.73823635	      3.48110486	      6.99430743	      6.39811531	    -13.00410749	    -20.32180646	     20.98156606	    100.03147461	     -0.12494553	     -9.98866968	     -0.32988366	     14.98179020	    103.06610868
      0.33000000	     -4.86242080	     -2.44063100	     -1.63735133	      0.30815733	      0.89131835	     -0.16085104	      2.24104524	      6.58645182	      2.71967951	     11.47763677	      0.20032255	     15.68738090	     -2.13928874	     -7.47279137	     28.69811144	     -3.50899066	     -3.00414569	     34.38754184	      0.60017583	      5.63369338	     -5.39473857	     -7.47279137	      0.39311842	      3.77895964	      7.80828396	      6.77999280	    -13.78349795	    -17.42552686	     22.74240559	     99.53941401	     -0.49279332	    -10.00825474	     -0.99630464	     14.19366326	    103.13158828
      0.34000000	     -4.84124161	     -2.65720287	     -2.10186462	      0.31999795	      0.89001752	     -0.16037425	      1.04979805	      6.75339785	      2.97486932	     10.88983591	      0.19006349	     16.20665030	     -1.68304520	     -7.47384620	     29.49691726	     -3.81638826	     -3.33183701	     32.09700164	      0.56019836	      5.46112098	     -4.69803473	     -7.47384620	      0.23277589	      4.15341046	      8.34397021	      7.63758898	    -14.26040796	    -16.19095984	     23.67759185	     99.30417708	     -1.07382704	    -10.11158866	     -1.34579120	     13.49230758	    103.37096473
      0.35000000	     -4.94880736	     -2.82931942	     -2.60219018	      0.33190745	      0.88815567	     -0.15974816	     -0.04423538	      6.87241175	      3.34671477	     10.32418730	      0.18019106	     16.66442982	     -1.18204162	     -7.48195861	     30.31020631	     -4.05191531	     -3.49595955	     29.55825736	      0.51588891	      5.35085328	     -4.11952789	     -7.48195861	      0.19448958	      4.40155078	      8.57821706	      8.75661006	    -15.02715703	    -11.66331322	     24.28685955	     95.89208833	     -1.98394061	    -10.17020499	     -3.05007703	     13.08466241	    103.77348735
      0.36000000	     -5.16945157	     -3.03507688	     -3.07427583	      0.34375863	      0.88584061	     -0.15921495	     -1.05007132	      7.02753380	      3.74050864	      9.76939718	      0.17050815	     16.92212150	     -0.78272616	     -7.48187367	     31.16932938	     -4.31779673	     -3.62335125	     26.84837155	      0.46859248	      5.22796331	     -3.51101606	     -7.48187367	      0.34091315	      4.75127068	      9.16109199	      9.62493174	    -15.30248290	    -11.57023726	     24.85900889	     96.16962267	     -2.51232091	    -10.31929805	     -3.14895665	     12.27255659	    104.20785910
      0.37000000	     -5.37872122	     -3.18764723	     -3.55434629	      0.35560543	      0.88345765	     -0.15867071	     -2.07761238	      7.11690007	      4.11874029	      9.27163318	      0.16182053	     17.24643094	     -0.19539881	     -7.48191972	     31.89480419	     -4.55263350	     -3.75376510	     23.97410460	      0.41842706	      5.32503620	     -2.57645668	     -7.48191972	      0.37520845	      4.96451556	      9.73188766	     10.25958736	    -15.55768353	    -11.16880671	     26.08811727	     96.41224017	     -3.03706493	    -10.50333456	     -3.41200605	     11.50088123	    104.52579657
      0.38000000	     -5.65051979	     -3.44627380	     -3.94537149	      0.36751609	      0.88100440	     -0.15860285	     -3.04934177	      7.30038278	      4.43219678	      8.79286260	      0.15346440	     17.39286161	      0.26929818	     -7.48186143	     32.63910499	     -4.80437929	     -3.53506222	     21.09841014	      0.36823672	      5.57023774	     -1.80085707	     -7.48186143	      0.51243021	      5.37950009	     10.29711593	     10.89418636	    -15.88926313	    -10.86314739	     26.92554726	     96.66196722	     -3.54971260	    -10.64600922	     -3.65371602	     10.94124783	    104.74611956
      0.39000000	     -5.74984800	     -3.61115396	     -4.36587535	      0.37968473	      0.87901541	     -0.15847958	     -4.20606970	      7.35564985	      4.75492251	      8.34198431	      0.14559509	     17.66321815	      0.87045832	     -7.48489073	     33.07566970	     -5.04944381	     -3.58015135	     18.24415376	      0.31842055	      6.03632881	     -0.43271364	     -7.48489073	      0.25786421	      5.56743581	     10.93148210	     10.93487795	    -16.40065957	     -9.20586569	     29.30121199	     93.89513155	     -3.95887874	    -10.74225642	     -4.75688125	     10.34867575	    101.95361779
      0.40000000	     -6.25521770	     -3.80898643	     -4.73842808	      0.39223130	      0.87672923	     -0.15869120	     -4.82599507	      7.44812915	      4.86202213	      8.09034338	      0.14120313	     17.98040751	      1.57505350	     -7.48703515	     33.92125906	     -5.27679409	     -3.25251153	     15.58351340	      0.27198362	      6.28483369	      0.39876238	     -7.48703515	      0.71137256	      5.87146707	     11.51092411	     11.00221140	    -17.00516791	     -7.11932616	     30.80231561	     91.97416811	     -4.13382695	    -10.81739499	     -5.49946745	      9.01612172	    100.89050290
      0.41000000	     -6.59144498	     -3.95621274	     -5.06152862	      0.40512212	      0.87488113	     -0.15890071	     -5.59589476	      7.47446733	      5.04954755	      7.89452432	      0.13778544	     18.19617700	      2.03258747	     -7.48753224	     34.52632245	     -5.47470285	     -2.99263740	     13.17622553	      0.22996852	      6.57819021	      1.44394580	     -7.48753224	      0.87800804	      6.07242575	     11.87230152	     11.19968181	    -17.26388994	     -6.49549521	     32.12773879	     92.60775415	     -4.76641646	    -11.03367870	     -6.24614102	      8.85664332	    102.14554513
      0.42000000	     -6.83390094	     -4.00054240	     -5.37553113	      0.41832875	      0.87328016	     -0.15901588	     -6.37170440	      7.36916887	      5.16874330	      7.84703794	      0.13695665	     18.51709428	      2.56286408	     -7.48847008	     34.95070012	     -5.57448001	     -2.64226353	     11.04409651	      0.19275585	      6.60960688	      1.98398078	     -7.48847008	      0.95828188	      6.10982071	     12.23361773	     11.39451035	    -17.31583560	     -6.21549389	     33.09527620	     90.71487699	     -5.20036857	    -11.18941707	     -6.83070660	      8.41485962	    100.15228644
      0.43000000	     -7.20911714	     -4.07255837	     -5.62206400	      0.43177354	      0.87140673	     -0.15912568	     -6.92746204	      7.31166445	      5.38082823	      7.91402491	      0.13812579	     18.60686262	      2.63541186	     -7.48842720	     35.56979000	     -5.70227105	     -2.23138964	      9.44778517	      0.16489496	      6.65235997	      2.46896437	     -7.48842720	      1.33724727	      6.22127319	     12.49495984	     11.70129293	    -17.31132534	     -6.08216961	     33.30377733	     91.05714773	     -5.48667884	    -11.39292381	     -7.05230434	      7.68563841	    100.66612347
      0.44000000	     -7.57116892	     -4.03744107	     -5.84774589	      0.44546079	      0.86944656	     -0.15905350	     -7.38815530	      7.14168739	      5.55181901	      8.14811189	      0.14221138	     18.78752353	      2.71506393	     -7.48844934	     36.14673729	     -5.74607703	     -1.98552197	      8.30029442	      0.14486747	      6.54513158	      2.82032142	     -7.48844934	      1.69928259	      6.14569240	     12.69445885	     11.81175650	    -17.23193643	     -5.91920553	     33.67947453	     91.28970892	     -5.79082500	    -11.60037883	     -7.34368274	      7.15306577	    100.98665903
      0.45000000	     -7.91242509	     -3.89310907	     -6.03403949	      0.45937439	      0.86738608	     -0.15887022	     -7.74223980	      6.85915591	      5.69215385	      8.59318487	      0.14997937	     18.95751676	      2.78349286	     -7.48855808	     36.67569572	     -5.67638525	     -1.80466010	      7.60833564	      0.13279051	      6.29223383	      3.04073680	     -7.48855808	      2.09572782	      5.95384434	     12.87721427	     11.78989945	    -17.10694107	     -5.73969269	     34.17738592	     91.41632260	     -6.07359016	    -11.84714229	     -7.74899547	      6.78138697	    101.12834839
      0.46000000	     -8.28109676	     -3.72123875	     -6.18371347	      0.47358600	      0.86525524	     -0.15871668	     -7.98577175	      6.54371820	      5.78349059	      9.17762500	      0.16017977	     19.09196190	      2.91378947	     -7.49279199	     37.22807091	     -5.55983542	     -1.64079846	      7.40764474	      0.12928779	      5.96762491	      2.96424164	     -7.49279199	      2.44214876	      5.67387281	     12.80071784	     11.64950690	    -16.96441575	     -5.33918108	     34.89063724	     94.32571061	     -6.43399286	    -11.75895440	    -15.32568322	      6.95476829	    106.84422770
      0.47000000	     -8.51366554	     -3.43489105	     -6.25307915	      0.48816089	      0.86341679	     -0.15868638	     -8.24991256	      6.10004445	      5.75558034	      9.97892013	      0.17416501	     19.15403352	      2.92579358	     -7.49413329	     37.57731828	     -5.27407372	     -1.44566350	      7.58742404	      0.13242553	      5.38391231	      2.59357721	     -7.49413329	      2.79556174	      5.26304327	     12.90277091	     11.56457166	    -16.69290715	     -5.12529443	     34.81954182	     91.50096610	     -6.42554593	    -11.97504981	    -15.56967200	      6.39431896	    103.66615326
      0.48000000	     -8.60240198	     -3.09495298	     -6.27276562	      0.50309846	      0.86195411	     -0.15886738	     -8.58312888	      5.59026374	      5.71791662	     10.93779966	      0.19090062	     19.07164257	      2.79938061	     -7.49420926	     37.78447875	     -4.91233260	     -1.52207881	      8.24948008	      0.14398059	      4.89435368	      2.44503384	     -7.49420926	      2.90350068	      4.73042151	     12.91797557	     11.44515323	    -16.39952083	     -5.09260244	     34.92276399	     91.49641914	     -6.57263507	    -12.24714663	    -15.63711725	      6.63258582	    103.60294972
      0.49000000	     -8.75699056	     -2.67236060	     -6.33542121	      0.51857720	      0.86070467	     -0.15921676	     -8.68960549	      4.98961356	      5.68964396	     12.21297791	      0.21315668	     18.99821673	      2.66489056	     -7.49439946	     37.97181064	     -4.47030283	     -1.45390394	      9.16310684	      0.15992638	      4.04113227	      1.66673326	     -7.49439946	      3.23421455	      4.15216756	     12.94875669	     11.21759031	    -16.00310368	     -5.24730048	     34.74871241	     91.68307995	     -6.50191345	    -12.51877600	    -16.04843736	      6.21940496	    103.80050307
      0.50000000	     -8.76908464	     -2.24947224	     -6.25926718	      0.53458860	      0.85981065	     -0.15998111	     -8.89059666	      4.37693869	      5.44495793	     13.62646507	      0.23782668	     18.63842349	      2.48372836	     -7.49471585	     38.02170828	     -3.92142909	     -1.33638911	     10.43794462	      0.18217650	      3.25645878	      0.82903208	     -7.49471585	      3.48707864	      3.54601321	     13.00205945	     10.90251136	    -15.57942940	     -5.71640128	     34.30018079	     92.07232025	     -6.26031029	    -12.78766661	    -16.82752281	      5.88041617	    104.21999774
      0.51000000	     -8.68767695	     -1.75199789	     -6.24645822	      0.55104544	      0.85923351	     -0.16083698	     -9.03941175	      3.65100461	      5.19873628	     15.33355903	      0.26762109	     18.17560207	      2.23740619	     -7.49487151	     37.89734466	     -3.34956890	     -1.49710730	     11.87289772	      0.20722116	      2.51311447	      0.25336709	     -7.49487151	      3.54036827	      2.84563182	     12.94169534	     10.59876682	    -15.14914177	     -5.90456407	     34.08396826	     92.14002785	     -6.30234696	    -13.01222331	    -17.18414081	      6.04761352	    104.17470083
      0.52000000	     -8.56783733	     -1.27979233	     -6.13422600	      0.56793653	      0.85880898	     -0.16193293	     -9.11894706	      2.94489810	      4.79422536	     17.25574566	      0.30116958	     17.34241299	      1.89081446	     -7.49648886	     37.70527303	     -2.71125827	     -1.46176318	     13.44539532	      0.23466642	      1.72880735	     -0.60029968	     -7.49648886	      3.65757037	      2.18817722	     12.91912386	     10.12290145	    -14.49694518	     -7.59762538	     33.67043768	     94.87048637	     -6.15066560	    -13.13440887	    -20.23430630	      6.19369711	    106.72459343
      0.53000000	     -8.33514584	     -0.78379543	     -6.03376623	      0.58509437	      0.85866046	     -0.16292649	     -9.12509571	      2.18774045	      4.36544948	     19.50479411	      0.34042288	     16.31728765	      1.50432416	     -7.49657899	     37.32123294	     -2.06727439	     -1.58867656	     15.04027287	      0.26250228	      1.13577332	     -1.22493997	     -7.49657899	      3.64316764	      1.48542667	     12.74025554	      9.68245065	    -14.07336271	     -7.61542687	     33.21859048	     94.77563036	     -6.15827279	    -13.30557492	    -20.30081052	      6.41495226	    106.42374208
      0.54000000	     -8.02834346	     -0.34732722	     -5.83347381	      0.60242775	      0.85878921	     -0.16394889	     -9.06313256	      1.45123005	      3.67428277	     21.95239772	      0.38314162	     14.73522953	      1.19269853	     -7.49662896	     36.80562497	     -1.42079632	     -1.70151351	     16.63242838	      0.29029064	      0.75307098	     -1.59216256	     -7.49662896	      3.52362694	      0.86370179	     12.50230295	      9.07673697	    -13.71506832	     -7.62985987	     32.90109286	     94.62520260	     -6.18619321	    -13.42096651	    -20.33544414	      6.90268869	    106.07106884
      0.55000000	     -7.69381698	      0.13278373	     -5.69592245	      0.61956958	      0.85919211	     -0.16458911	     -8.69983778	      0.70767096	      3.31914698	     24.88074700	      0.43425096	     12.84405235	      0.25395992	     -7.49688187	     36.12583958	     -0.71711217	     -1.55412073	     18.01415679	      0.31440635	      0.16625322	     -2.73645322	     -7.49688187	      3.51180224	      0.18540985	     12.25001677	      8.77163052	    -13.13692050	     -8.02091120	     31.57988692	     93.82616108	     -5.89659377	    -13.53183270	    -20.48347072	      6.39131694	    104.99086592
      0.56000000	     -7.40062355	      0.62075739	     -5.44517535	      0.63667563	      0.85988005	     -0.16512940	     -8.07794526	     -0.07575217	      2.68093711	     28.03575769	      0.48931628	     10.45280093	     -0.50219615	     -7.49711328	     35.39334904	      0.00678894	     -1.61763081	     19.25688313	      0.33609601	     -0.01703159	     -3.15899204	     -7.49711328	      3.46258470	     -0.52217950	     11.84809743	      8.06199493	    -12.63144060	     -8.18087655	     31.16613892	     92.80973574	     -5.98930175	    -13.60694222	    -20.45462036	      6.92421037	    103.58281152
      0.57000000	     -7.08508048	      0.92833497	     -5.22545791	      0.65310412	      0.86086507	     -0.16547388	     -7.13662558	     -0.66537122	      2.17888374	     31.56747650	      0.55095640	      7.57403015	     -1.38155884	     -7.49735889	     34.62647100	      0.54517157	     -1.53512796	     20.51312088	      0.35802150	      0.11875170	     -3.64946823	     -7.49735889	      3.42533871	     -0.93782554	     11.53345954	      7.70145997	    -12.15407359	     -8.60350584	     29.69992536	     92.47802628	     -5.63273209	    -13.64471277	    -20.13896496	      6.52951147	    103.31407281
      0.58000000	     -6.69827672	      1.33408986	     -4.96091115	      0.66928583	      0.86229281	     -0.16571223	     -6.02531234	     -1.37358240	      1.64066971	     35.27782371	      0.61571418	      4.36789453	     -2.30642379	     -7.49753719	     33.58482253	      1.19617999	     -1.55711318	     21.37957633	      0.37314400	      0.31529106	     -3.94831117	     -7.49753719	      3.14435631	     -1.55446123	     11.04205173	      6.96715565	    -11.67173892	     -8.75017894	     29.37632763	     91.75810719	     -5.67110590	    -13.61767910	    -19.92840446	      7.17757740	    102.35959467
      0.59000000	     -6.34114949	      1.63460952	     -4.71701494	      0.68503112	      0.86381134	     -0.16589964	     -4.65457592	     -1.93046363	      1.26669607	     39.08928757	      0.68223677	      0.81162744	     -3.42546969	     -7.49767356	     32.53698538	      1.72193133	     -1.53251188	     22.17926051	      0.38710112	      0.73035831	     -4.24033065	     -7.49767356	      2.95129207	     -2.00384508	     10.61122388	      6.50389663	    -11.26206173	     -9.07171161	     28.24061732	     91.59129281	     -5.35747947	    -13.65250856	    -19.54437588	      7.08152015	    102.27698290
      0.60000000	     -6.01950204	      1.93378656	     -4.45567569	      0.70063534	      0.86536878	     -0.16615870	     -3.06929624	     -2.49512485	      0.85649979	     42.92548005	      0.74919096	     -2.65908200	     -4.38402476	     -7.49779382	     31.41000056	      2.24048238	     -1.51861507	     22.74629096	      0.39699767	      1.28745534	     -4.35455215	     -7.49779382	      2.73505191	     -2.45801499	     10.10226713	      5.92242932	    -10.82479257	     -9.32218274	     27.47413711	     91.35467674	     -5.18838368	    -13.61774359	    -19.13555492	      7.38032713	    102.05178040
      0.61000000	     -5.71081000	      2.13397298	     -4.21579202	      0.71616635	      0.86690453	     -0.16659895	     -1.36556812	     -2.90507546	      0.57558053	     46.62351606	      0.81373386	     -5.99494569	     -5.28959480	     -7.49791655	     30.23132152	      2.65287544	     -1.48168745	     23.18922416	      0.40472831	      2.05433891	     -4.42696766	     -7.49791655	      2.53235737	     -2.74555899	      9.57627547	      5.46070671	    -10.43785764	     -9.63832114	     26.38785542	     91.25405444	     -4.96573835	    -13.54186608	    -18.60861974	      7.55284344	    101.99113867
      0.62000000	     -5.38730917	      2.36047132	     -3.96517909	      0.73184474	      0.86841146	     -0.16723252	      0.38359305	     -3.32305964	      0.27935397	     50.12794790	      0.87489774	     -8.75807132	     -6.03420537	     -7.49801251	     28.90778930	      3.10039584	     -1.43387339	     23.37542265	      0.40797809	      2.82295990	     -4.44456646	     -7.49801251	      2.23904733	     -3.08838753	      8.97106888	      4.76746411	    -10.09586439	     -9.78551032	     25.93852427	     90.88119181	     -4.91882139	    -13.44045129	    -18.27767356	      8.18509903	    101.47940668
      0.63000000	     -5.08791980	      2.39610339	     -3.80926112	      0.74734809	      0.86986834	     -0.16800899	      2.26891268	     -3.43761893	      0.15175169	     53.37767985	      0.93161626	    -11.06524811	     -6.97372640	     -7.49807238	     27.55313934	      3.29996025	     -1.41317081	     23.45638213	      0.40939110	      3.65752953	     -4.39182785	     -7.49807238	      1.99329677	     -3.16478498	      8.45662342	      4.33079444	     -9.82699073	    -10.00183272	     24.87860336	     90.90972080	     -4.61274258	    -13.25766954	    -17.81781639	      8.25539985	    101.59933213
      0.64000000	     -4.94019225	      2.28256288	     -3.63297900	      0.76291408	      0.87113544	     -0.16908712	      4.40087468	     -3.32922424	     -0.02888930	     56.28484297	      0.98235583	    -12.51057039	     -7.66211843	     -7.49851819	     26.30577458	      3.33568204	     -1.38173160	     23.46946157	      0.40961938	      4.66895992	     -4.10498022	     -7.49851819	      1.97833724	     -2.99594260	      8.11037983	      3.81565153	     -9.57336579	    -11.20024309	     23.61215601	     93.95941454	     -4.26199664	    -13.21628790	    -15.05874133	      8.33084549	    104.09521615
      0.65000000	     -4.65493099	      2.10647035	     -3.47226685	      0.77842981	      0.87264802	     -0.17035081	      6.50585008	     -3.07821360	     -0.21923127	     58.74512632	      1.02529587	    -13.08827820	     -8.51205789	     -7.49856077	     24.75142898	      3.33038116	     -1.27106737	     23.19058036	      0.40475198	      5.52174011	     -4.03334604	     -7.49856077	      1.63853985	     -2.76650128	      7.47731059	      3.19657251	     -9.44429913	    -11.31205145	     23.18954613	     93.67854973	     -4.11735003	    -12.88743739	    -14.96839254	      8.83228373	    103.63590143
      0.66000000	     -4.43861441	      1.66829250	     -3.24486550	      0.79382768	      0.87428254	     -0.17200492	      8.80447359	     -2.49105348	     -0.57101075	     60.57272359	      1.05719346	    -12.64604710	     -9.21507995	     -7.49859317	     23.12900032	      3.09086117	     -0.97454869	     22.67770014	      0.39580053	      6.27833176	     -3.87646470	     -7.49859317	      1.32716047	     -2.14329360	      6.82022928	      2.47134968	     -9.51478345	    -11.36364131	     23.05940177	     93.30115242	     -3.96661282	    -12.36695343	    -14.85205518	      9.51205155	    103.11729127
      0.67000000	     -4.64590918	      1.25564756	     -3.16956262	      0.80895001	      0.87529779	     -0.17309037	     11.88300853	     -1.73449232	     -0.78021002	     61.92446586	      1.08078582	    -11.33000241	    -10.68463210	     -7.49865737	     21.97466115	      2.65715336	     -1.24512048	     22.23274193	      0.38803455	      7.35537870	     -2.98421238	     -7.49865737	      1.68259240	     -1.57506420	      5.92280585	      2.55305336	     -9.32315962	    -11.55479095	     20.84311205	     93.34185191	     -4.03357084	    -12.05681528	    -14.17708778	      9.89671366	    103.02205673
      0.68000000	     -4.73718027	      0.72583501	     -2.92184086	      0.82384182	      0.87655927	     -0.17446014	     14.86981341	     -0.90024626	     -1.29956064	     62.33382225	      1.08793043	     -8.63180917	    -11.62797313	     -7.49871607	     20.56406821	      2.22479574	     -1.13641990	     21.53264534	      0.37581556	      8.20337857	     -2.45589522	     -7.49871607	      1.70011832	     -0.83224874	      4.93308391	      2.14762192	     -9.36165726	    -11.48299542	     20.14113043	     93.14836778	     -4.04497068	    -11.61102578	    -13.60250370	     10.71934991	    102.59943742
      0.69000000	     -4.80090807	      0.18254648	     -2.69400678	      0.83838459	      0.87797153	     -0.17546768	     17.76382572	      0.02631423	     -1.78031332	     61.65786017	      1.07613267	     -5.38242358	    -13.03195576	     -7.49874395	     19.03349789	      1.77173144	     -0.96950014	     20.65987095	      0.36058277	      8.75957340	     -2.18851433	     -7.49874395	      1.61072152	     -0.08143789	      4.15764941	      1.47063295	     -9.46022349	    -11.46364635	     20.00095718	     92.85268391	     -3.78652782	    -11.13653157	    -13.38015026	     11.44712411	    102.17401859
      0.70000000	     -5.19752796	     -0.35364283	     -2.26989982	      0.85262324	      0.87887286	     -0.17642348	     20.76223718	      0.76759186	     -2.55932527	     60.03299733	      1.04777346	     -0.83387182	    -12.93381223	     -7.49886656	     17.97229353	      1.29406775	     -0.97538088	     19.98543642	      0.34881167	      9.70571945	     -1.22464750	     -7.49886656	      2.10857577	      0.67952407	      2.56759309	      1.74454085	     -9.50750942	    -10.62786400	     17.93024123	     93.17500450	     -4.10903241	    -10.90765147	    -11.21350800	     12.57492456	    101.92476554
      0.71000000	     -5.43865963	     -0.80648988	     -1.82879083	      0.86630481	      0.88005264	     -0.17699573	     23.10407899	      1.39200025	     -3.18421024	     57.43321769	      1.00239875	      3.10446014	    -12.81137989	     -7.49890016	     16.75272589	      0.94256384	     -0.79383578	     19.27685324	      0.33644456	     10.35583305	     -0.69840172	     -7.49890016	      2.34937130	      1.28729444	      1.63635048	      1.06000977	     -9.60141768	    -10.53017385	     17.71472375	     92.95705516	     -3.74876171	    -10.55247989	    -10.77718181	     13.38990842	    101.53649570
      0.72000000	     -5.53476057	     -1.04299074	     -1.34422420	      0.87929982	      0.88138839	     -0.17728084	     24.77071928	      1.64638756	     -3.73099940	     54.38886474	      0.94926477	      6.31467890	    -11.99416360	     -7.49899624	     15.45714593	      0.82346118	     -0.64962756	     18.65509785	      0.32559288	     11.02521493	     -0.13028155	     -7.49899624	      2.52839794	      1.61179275	      0.24044301	      1.10109308	     -9.57413567	     -9.91369724	     16.32395726	     93.06698454	     -3.63942669	    -10.53424384	     -8.59015411	     14.45690573	    101.18216124
      0.73000000	     -5.58640030	     -1.18033129	     -0.81962243	      0.89155472	      0.88272859	     -0.17746530	     25.85282562	      1.68974947	     -4.17806876	     51.24485757	      0.89439149	      8.14063501	    -11.15264197	     -7.49902860	     14.24694435	      0.83788325	     -0.35524164	     18.19861138	      0.31762569	     11.65384211	      0.17629662	     -7.49902860	      2.73408871	      1.77447465	     -0.71495867	      0.55330482	     -9.57269895	     -9.78761816	     15.88659254	     92.98930245	     -3.04648122	    -10.40608368	     -7.81587580	     15.17023744	    100.95740267
      0.74000000	     -5.51580133	     -1.25507508	     -0.30034725	      0.90298830	      0.88409556	     -0.17761977	     26.38711127	      1.59609249	     -4.51423573	     48.35063484	      0.84387777	      8.73567285	    -10.49402739	     -7.49905354	     13.03736692	      0.92185105	      0.02069372	     17.88062840	      0.31207584	     12.23114633	      0.29616740	     -7.49905354	      2.81201555	      1.85121722	     -1.64577549	      0.21101332	     -9.54101693	     -9.71437681	     15.16575036	     92.96576526	     -2.37432940	    -10.36169233	     -6.78984423	     16.00182957	    100.90289631
      0.75000000	     -5.36680198	     -1.20210485	      0.14249924	      0.91369441	      0.88525612	     -0.17765376	     26.60667558	      1.36469609	     -4.67002985	     45.95672364	      0.80209614	      8.55684539	    -10.02080233	     -7.49932411	     11.83870844	      1.11536673	      0.38851246	     17.61222072	      0.30739124	     12.60410772	      0.30202342	     -7.49932411	      2.84539469	      1.73302377	     -2.16317409	     -0.23997371	     -9.53714474	     -9.04758073	     14.43049667	     92.06101603	     -1.26514286	    -10.86730207	     -0.95928071	     16.44543906	     97.97198680
      0.76000000	     -5.35055675	     -1.17204677	      0.54220644	      0.92401583	      0.88578092	     -0.17789371	     26.83661821	      1.10053996	     -4.83022928	     44.03024384	      0.76847273	      7.97671505	     -9.68025897	     -7.49932924	     10.90371781	      1.28114138	      0.82778581	     17.47057792	      0.30491911	     13.14202212	      0.22349902	     -7.49932924	      3.06293439	      1.65065902	     -2.80555794	     -0.63623238	     -9.50556527	     -9.11296648	     13.84661757	     92.09560230	     -0.29848077	    -10.78573092	     -0.74189900	     17.05969740	     98.02280339
      0.77000000	     -5.20024093	     -1.14539557	      0.89662963	      0.93408124	      0.88590473	     -0.17817336	     26.86401855	      0.84849215	     -4.94204520	     42.39930789	      0.74000752	      7.26113789	     -9.49143633	     -7.49933843	      9.92137593	      1.42231366	      1.31856514	     17.39114272	      0.30353270	     13.62570609	      0.05453908	     -7.49933843	      3.01800394	      1.59949875	     -3.42754459	     -0.85262353	     -9.46289684	     -9.21365588	     13.31899484	     92.02886026	      0.71441735	    -10.78167740	     -0.24840434	     17.99030717	     98.01293627
      0.78000000	     -4.87275701	     -1.11122466	      1.19167793	      0.94425114	      0.88566398	     -0.17839366	     26.71082931	      0.62055032	     -4.96198591	     40.96522366	      0.71497803	      6.61553073	     -9.39804434	     -7.49939782	      8.74390125	      1.54474740	      1.83508527	     17.21278130	      0.30041971	     14.03934101	     -0.31883812	     -7.49939782	      2.60753545	      1.53928760	     -4.18573223	     -0.69257599	     -9.36398595	     -9.69793429	     12.41119531	     91.66147430	      1.53309642	    -11.33869457	      2.95756572	     19.75236681	     97.86397408
      0.79000000	     -4.75312233	     -1.13445156	      1.53818158	      0.95475704	      0.88471107	     -0.17868658	     26.79491546	      0.42082928	     -5.03087233	     39.53730037	      0.69005607	      5.90561806	     -9.43668435	     -7.49941044	      7.88777812	      1.58663639	      2.35594541	     17.14498288	      0.29923640	     14.55048763	     -0.54517927	     -7.49941044	      2.51927540	      1.58081598	     -4.54529733	     -0.97866749	     -9.36277491	     -9.82921110	     11.91762913	     91.63988271	      2.93116613	    -11.35384252	      3.63966789	     20.59075694	     97.81997316
      0.80000000	     -4.78608056	     -1.05950179	      1.79300204	      0.96564381	      0.88331901	     -0.17869829	     27.15228387	      0.11593708	     -5.11906906	     38.17185127	      0.66622449	      5.43425455	     -9.34230795	     -7.49941739	      7.12728163	      1.69910187	      2.75707945	     16.91187036	      0.29516782	     15.05528128	     -0.66896502	     -7.49941739	      2.49382536	      1.41738258	     -5.03829796	     -1.14502186	     -9.38810000	     -9.97833638	     11.54625315	     91.61541443	      4.16580521	    -11.41579678	      4.24475698	     21.52101515	     97.84534155
      0.81000000	     -4.62565558	     -0.99761803	      2.04642033	      0.97663377	      0.88218116	     -0.17847307	     27.34692422	     -0.12298932	     -5.07843150	     36.65486003	      0.63974799	      5.05935566	     -9.30057266	     -7.49953396	      6.15680384	      1.76286626	      3.17593909	     16.64358461	      0.29048535	     15.56587710	     -0.85238693	     -7.49953396	      2.22793048	      1.34050000	     -4.94484527	     -1.58705553	     -9.26926236	    -11.89479033	     11.37224480	     91.03033508	      6.03185003	    -12.11014072	      9.77039220	     22.71516158	     96.39717543
      0.82000000	     -4.71676507	     -0.94923140	      2.37456145	      0.98778260	      0.88095379	     -0.17824456	     27.86076804	     -0.42225093	     -5.18570733	     34.97803376	      0.61048185	      4.72716397	     -9.14570169	     -7.49953851	      5.44405642	      1.80900103	      3.61424724	     16.34427741	      0.28526145	     16.17005082	     -0.86849407	     -7.49953851	      2.24914749	      1.24649528	     -5.44311643	     -1.78648329	     -9.30633771	    -12.01533140	     11.04335180	     91.06844052	      7.42573158	    -12.13112020	      9.91912627	     23.77421492	     96.35341266
      0.83000000	     -4.54471572	     -0.87872374	      2.64899691	      0.99876609	      0.88035912	     -0.17770019	     28.12902941	     -0.67399825	     -5.18201714	     33.06608802	      0.57711211	      4.50037871	     -9.01093187	     -7.49956122	      4.35190283	      1.83175178	      3.97204231	     15.88235274	      0.27719935	     16.77423983	     -0.83596224	     -7.49956122	      1.76891781	      1.16718785	     -6.04800630	     -1.74787404	     -9.27490375	    -12.72281683	     10.82386620	     90.95502817	      8.53088417	    -12.59471092	     11.08089364	     26.16276578	     96.08740932
      0.84000000	     -4.67938078	     -0.82035902	      2.96683871	      1.00975727	      0.87958685	     -0.17710249	     28.76790993	     -0.95419972	     -5.24704564	     30.94928301	      0.54016689	      4.28762657	     -8.79225715	     -7.49956857	      3.59433759	      1.84529452	      4.34522829	     15.47047597	      0.27001074	     17.47387626	     -0.74980834	     -7.49956857	      1.76346451	      1.06785512	     -6.50008203	     -1.87864458	     -9.29234802	    -13.12217744	     10.44167947	     91.01594011	      9.96568064	    -12.73732760	     11.55260333	     27.45787311	     96.07931557
      0.85000000	     -4.83720301	     -0.73638018	      3.28548159	      1.02079937	      0.87889547	     -0.17637077	     29.44564329	     -1.26715290	     -5.37803843	     28.62405020	      0.49958392	      4.00851668	     -8.51996545	     -7.49957114	      2.77468646	      1.86065063	      4.64854234	     14.94190802	      0.26078549	     18.13055393	     -0.60024909	     -7.49957114	      1.73054155	      0.93851153	     -6.97288147	     -1.95622547	     -9.34022626	    -13.50957027	     10.04365353	     91.14036462	     11.40308557	    -12.81849885	     11.97734014	     28.78140897	     96.20748524
      0.86000000	     -4.91967897	     -0.62361828	      3.58609802	      1.03197118	      0.87822939	     -0.17540979	     29.99041601	     -1.55817444	     -5.48287033	     25.99399411	      0.45368078	      3.80622135	     -8.13683914	     -7.49957748	      1.80645967	      1.87880803	      4.89285916	     14.36637375	      0.25074052	     18.83029006	     -0.32986991	     -7.49957748	      1.51807618	      0.77421248	     -7.41115809	     -2.02964522	     -9.30728705	    -14.21667310	      9.84259002	     91.16882954	     12.65901389	    -13.14296987	     12.66633177	     30.65841855	     96.24888206
      0.87000000	     -5.21112428	     -0.27439459	      3.79062718	      1.04344257	      0.87694378	     -0.17407662	     30.85542596	     -1.98676548	     -5.23717411	     23.45532627	      0.40937267	      3.74474941	     -7.83103485	     -7.49957210	      0.98371210	      2.15519921	      5.06356830	     13.74400297	      0.23987810	     19.31106419	     -0.24229195	     -7.49957210	      1.68686086	      0.25971147	     -7.91419972	     -1.90257977	     -9.20540605	    -14.40538183	      9.26090937	     91.46082328	     14.12317933	    -13.28631663	     12.71585505	     31.16635565	     96.58478520
      0.88000000	     -5.17486039	     -0.20153324	      4.18805280	      1.05558345	      0.87593264	     -0.17303897	     31.07518820	     -2.24050333	     -5.67076762	     20.43827159	      0.35671513	      3.46401592	     -6.99360907	     -7.49967858	     -0.21174521	      2.07375777	      5.18260929	     13.16248447	      0.22972869	     20.07854516	      0.31212367	     -7.49967858	      1.23808385	      0.18339157	     -7.94858149	     -2.38624442	     -8.83461476	    -20.19453303	      9.95203169	     91.31859712	     15.49238570	    -13.72445528	     14.84065170	     33.55536828	     94.09388917
      0.89000000	     -5.52438216	      0.00261591	      4.49837343	      1.06837713	      0.87403840	     -0.17176566	     31.72137220	     -2.52947710	     -5.79900735	     17.58803277	      0.30696908	      3.17978772	     -6.27650270	     -7.49967842	     -1.03257538	      2.17084962	      5.37616395	     12.60904949	      0.22006943	     20.53093477	      0.54469645	     -7.49967842	      1.48444401	     -0.13917476	     -8.26722051	     -2.44874442	     -8.84990358	    -20.39564668	      9.39319241	     91.75246169	     16.68763882	    -13.78391901	     14.94375912	     34.53120565	     94.40996131
      0.90000000	     -5.72448902	      0.25519112	      4.83284936	      1.08162227	      0.87203102	     -0.17040619	     32.15336725	     -2.82593450	     -5.96922644	     14.90228759	      0.26009398	      3.07179782	     -5.28535325	     -7.49972246	     -2.03782520	      2.27802131	      5.50850369	     12.09380176	      0.21107666	     21.02114661	      0.95386263	     -7.49972246	      1.46235253	     -0.49276545	     -8.80815511	     -2.43576883	     -8.66046925	    -22.54975572	      9.30799972	     92.35817562	     17.47045569	    -14.11307888	     14.82265856	     36.34571743	     93.93885317
      0.91000000	     -6.03648763	      0.46130119	      5.18962190	      1.09539894	      0.86968729	     -0.16914333	     32.64854883	     -3.05333653	     -6.15004781	     12.45928699	      0.21745558	      2.91875797	     -4.30657206	     -7.49972338	     -2.89375158	      2.33754015	      5.70738719	     11.71443434	      0.20445545	     21.45159171	      1.27510312	     -7.49972338	      1.72167049	     -0.83099143	     -9.07464767	     -2.61535748	     -8.64145377	    -22.85822953	      8.94757878	     92.76909399	     18.51232701	    -14.11802714	     14.84356877	     37.11206794	     94.25389793
      0.92000000	     -6.26420733	      0.67980976	      5.50129017	      1.10948485	      0.86729412	     -0.16782704	     33.04351331	     -3.22918706	     -6.37113865	     10.38697551	      0.18128692	      2.81968102	     -3.16666430	     -7.49980293	     -3.84375450	      2.37571274	      5.79833501	     11.38366493	      0.19868243	     21.84906750	      1.75397161	     -7.49980293	      1.84104115	     -1.16314531	     -9.19293157	     -2.87223371	     -8.46902109	    -24.82476207	      9.00934711	     92.36862652	     19.55577692	    -14.28250233	     15.54066840	     38.02020822	     93.54325539
      0.93000000	     -6.51265396	      0.79991362	      5.89144486	      1.12383837	      0.86486928	     -0.16674123	     33.40432874	     -3.30811124	     -6.49289942	      8.67738051	      0.15144886	      2.69724246	     -2.39011819	     -7.49981464	     -4.68944031	      2.29922533	      6.08772092	     11.23782092	      0.19613698	     22.19072964	      2.05255906	     -7.49981464	      2.06704975	     -1.34485514	    -10.01364847	     -2.70774522	     -8.44203416	    -24.51134702	      8.68692358	     89.68619386	     19.84036871	    -14.52281458	     14.86762928	     39.32606833	     90.87492148
      0.94000000	     -6.77991809	      0.86388976	      6.20736740	      1.13834701	      0.86239520	     -0.16575071	     33.81231904	     -3.30391590	     -6.86056986	      7.45848663	      0.13017515	      2.64387734	     -1.28554628	     -7.49989390	     -5.44464825	      2.15317090	      6.21339908	     11.25671165	      0.19646668	     22.48046802	      2.40775734	     -7.49989390	      2.32104778	     -1.49901963	    -10.08437555	     -2.95823742	     -8.28554250	    -28.88693689	      8.74817184	     94.98435686	     20.51683101	    -14.26283450	     13.76469758	     40.12027741	     95.16705630
      0.95000000	     -7.03630798	      0.84788335	      6.49477079	      1.15297132	      0.85994310	     -0.16480981	     34.20725863	     -3.16915758	     -6.95163307	      6.69283985	      0.11681209	      2.39723440	     -0.84207203	     -7.49989605	     -6.12484694	      1.91202120	      6.34706071	     11.46442131	      0.20009190	     22.71304442	      2.62966308	     -7.49989605	      2.65690526	     -1.53692975	    -10.29537959	     -3.16031575	     -8.33351037	    -29.07495472	      8.64661667	     94.94696452	     21.09504621	    -14.19061217	     13.65309854	     40.62819901	     95.02481130
      0.96000000	     -7.21025788	      0.75311703	      6.75880913	      1.16770229	      0.85765364	     -0.16394518	     34.51929189	     -2.94995020	     -7.12126704	      6.40695346	      0.11182243	      2.20837601	     -0.49012501	     -7.49989881	     -6.78453915	      1.55518683	      6.36260750	     11.87292554	      0.20722164	     22.91310392	      2.98073269	     -7.49989881	      2.90989650	     -1.43966442	    -10.56528879	     -3.25532843	     -8.40804090	    -29.41797013	      8.49594878	     94.78202289	     21.51119355	    -14.12801295	     13.42327208	     41.18583394	     94.78196346
      0.97000000	     -7.26718759	      0.57301622	      6.99459842	      1.18248260	      0.85560491	     -0.16315276	     34.71396999	     -2.62965776	     -7.24158831	      6.57610561	      0.11477469	      2.07012099	     -0.27956989	     -7.49991065	     -7.45915466	      1.11276244	      6.48735945	     12.47342432	      0.21770232	     22.93847280	      2.93061898	     -7.49991065	      3.06497555	     -1.20943929	    -11.07422311	     -3.05758431	     -8.49789898	    -29.84556758	      8.10785763	     92.48970971	     21.69024875	    -14.12224265	     12.92516501	     41.79229807	     92.57737189
      0.98000000	     -7.43825658	      0.34454372	      7.05800219	      1.19755496	      0.85346729	     -0.16212560	     35.05906877	     -2.18962735	     -7.24190991	      7.14021368	      0.12462024	      1.70723320	     -0.43537221	     -7.49991544	     -7.87531057	      0.58404435	      6.00251780	     13.36605665	      0.23328170	     23.01425779	      3.77934048	     -7.49991544	      3.42898851	     -0.87772985	    -11.27002867	     -3.03215560	     -8.58923972	    -30.77002643	      7.92675756	     92.72824576	     21.69677278	    -14.01121389	     12.26063690	     42.27953007	     92.74773703
      0.99000000	     -7.46382565	     -0.00559966	      7.20258166	      1.21284064	      0.85171749	     -0.16131300	     35.20744853	     -1.68778671	     -7.24534134	      8.02492777	      0.14006141	      1.33251460	     -0.70374713	     -7.49991713	     -8.27236545	     -0.04756934	      5.92792746	     14.51230526	      0.25328751	     22.82712981	      3.69448358	     -7.49991713	      3.61381207	     -0.38051260	    -11.41912697	     -3.22007791	     -8.75339657	    -31.05959535	      8.05696509	     92.68302657	     21.88078804	    -13.79089578	     12.00591283	     42.53309761	     92.68123534
      1.00000000	     -7.49362968	     -0.38490518	      7.23235993	      1.22847366	      0.85013165	     -0.16031819	     35.37379484	     -1.09965638	     -7.04402997	      9.19627276	      0.16050524	      0.83867006	     -1.34973408	     -7.49992990	     -8.52974457	     -0.72579189	      5.57461843	     15.89629035	      0.27744261	     22.40785967	      3.80547663	     -7.49992990	      3.90181496	      0.14802848	    -11.91981800	     -2.83338762	     -8.89072729	    -33.85827349	      7.64604704	     93.61020361	     21.38495808	    -13.53080619	      9.95745729	     43.11933469	     93.39085377
      1.01000000	     -7.38828510	     -0.80306532	      7.21864776	      1.24440424	      0.84901182	     -0.15935980	     35.38222014	     -0.47376194	     -6.96150100	     10.58488050	      0.18474102	      0.51745167	     -1.72519737	     -7.49993101	     -8.74747741	     -1.44107579	      5.21219655	     17.55949801	      0.30647106	     21.62217172	      3.70641631	     -7.49993101	      4.01077195	      0.78919556	    -11.90933123	     -2.97954940	     -9.05230999	    -33.94270193	      7.99321861	     93.52635632	     21.39149106	    -13.32351037	      9.89448891	     43.16289862	     93.28112256
      1.02000000	     -7.34385120	     -1.26363140	      7.15645170	      1.26072263	      0.84811595	     -0.15833195	     35.41415326	      0.23580592	     -6.56135072	     12.06778436	      0.21062257	      0.02984471	     -2.73237703	     -7.49993292	     -8.64207769	     -2.19556900	      4.74673030	     19.67357026	      0.34336858	     20.77814140	      3.68702953	     -7.49993292	      4.29705079	      1.43255913	    -11.76534136	     -3.06522777	     -9.27793206	    -34.22886744	      7.82997647	     93.49915136	     21.28930387	    -12.93171800	      9.49845532	     42.97608551	     93.17730812
      1.03000000	     -7.28505179	     -1.70309108	      7.01204616	      1.27730190	      0.84775245	     -0.15724131	     35.39225426	      0.97016687	     -6.12051971	     13.59951514	      0.23735632	     -0.42264267	     -3.71372729	     -7.49993540	     -8.35730963	     -2.94072451	      4.10180778	     22.04085693	      0.38468552	     19.29499187	      3.58757345	     -7.49993540	      4.62916877	      2.03575348	    -11.68546032	     -3.01513515	     -9.49691139	    -34.65850593	      7.55677797	     93.55607654	     20.98011007	    -12.56191869	      8.81071274	     42.60125269	     93.12193640
      1.04000000	     -7.13980269	     -2.15938608	      6.84733151	      1.29400643	      0.84810107	     -0.15625069	     35.18829441	      1.72667669	     -5.81526544	     15.07806059	      0.26316180	     -0.63594330	     -4.46788313	     -7.49993813	     -7.90129931	     -3.70556481	      3.46328413	     24.77963670	      0.43248625	     17.35148645	      3.29587364	     -7.49993813	      4.85040857	      2.69894901	    -11.57725926	     -3.00290969	     -9.69525231	    -35.05598732	      7.50201137	     93.61558166	     20.54280699	    -12.18582083	      8.08138421	     42.30926041	     93.05864715
      1.05000000	     -6.90423056	     -2.60348069	      6.65264350	      1.31066252	      0.84923625	     -0.15533034	     34.79191974	      2.49352017	     -5.57019079	     16.45980587	      0.28727781	     -0.61807408	     -5.07672854	     -7.49994053	     -7.27834769	     -4.47118541	      2.78875419	     27.85217931	      0.48611223	     14.89554809	      2.92121089	     -7.49994053	      4.95854310	      3.37518208	    -11.40313783	     -3.01335068	     -9.85946803	    -35.30695481	      7.61004781	     93.65248675	     20.01173100	    -11.85792678	      7.47940656	     42.02344976	     92.98273354
      1.06000000	     -6.59192372	     -3.03983593	      6.45984618	      1.32712080	      0.85117363	     -0.15448486	     34.17932548	      3.27418414	     -5.32857818	     17.63621126	      0.30780995	     -0.51255279	     -5.68260370	     -7.49994460	     -6.46636670	     -5.24711469	      2.11486544	     31.22679139	      0.54501032	     11.97714528	      2.43395748	     -7.49994460	      4.96165067	      4.05576046	    -11.21958794	     -2.99846929	    -10.02642645	    -35.32704908	      7.70103476	     92.98970749	     19.43156942	    -11.51898197	      6.94331254	     41.68205352	     92.26652788
      1.07000000	     -6.40036564	     -3.38958144	      6.23871741	      1.34343085	      0.85358241	     -0.15357713	     33.60004385	      3.97491278	     -5.09521465	     18.71215707	      0.32658875	     -0.12045968	     -6.12829998	     -7.49994992	     -5.30406690	     -5.91481476	      1.47924492	     34.78828151	      0.60717005	      8.59483399	      1.78986779	     -7.49994992	      5.21277472	      4.54439478	    -11.04608355	     -2.91612523	    -10.19104495	    -35.26004802	      7.51232841	     92.98909300	     18.68752131	    -11.12896380	      6.06635070	     41.13345418	     92.12250306
      1.08000000	     -6.12816048	     -3.69856633	      6.04538535	      1.35936907	      0.85657001	     -0.15279199	     32.77003624	      4.62960975	     -4.91927369	     19.49825972	      0.34030883	      0.33996663	     -6.52128402	     -7.49995477	     -4.00715847	     -6.51815478	      0.96728050	     38.46244428	      0.67129629	      4.97649938	      1.08214833	     -7.49995477	      5.22831310	      5.06090637	    -10.78933692	     -2.90316067	    -10.35535530	    -35.04232993	      7.61046450	     93.10996185	     17.94461543	    -10.77094513	      5.42087980	     40.68311421	     92.13899309
      1.09000000	     -5.84565900	     -3.92994790	      5.89688206	      1.37496452	      0.85976613	     -0.15200698	     31.76892373	      5.19727421	     -4.75113772	     20.01259164	      0.34928562	      0.88511269	     -6.79811768	     -7.49996730	     -2.53061350	     -7.01484414	      0.56872927	     42.14388542	      0.73554956	      1.42296381	      0.33517514	     -7.49996730	      5.16767503	      5.44660829	    -10.64362092	     -2.88316933	    -10.46677662	    -34.67961883	      7.87025879	     95.65775231	     16.98703757	    -10.40526839	      4.07253284	     40.52850880	     94.51821078
      1.10000000	     -5.54320885	     -4.12463697	      5.72071856	      1.39043846	      0.86286489	     -0.15111355	     30.55930114	      5.75536041	     -4.56637420	     20.19789704	      0.35251981	      1.49454742	     -6.92277522	     -7.49996916	     -0.96936997	     -7.46549746	      0.12601616	     45.68784585	      0.79740334	     -1.76518718	     -0.19848826	     -7.49996916	      5.02531013	      5.80193772	    -10.17416798	     -3.16300534	    -10.41633842	    -34.59471226	      8.75119827	     94.68133603	     16.12651176	    -10.18443171	      4.02194105	     40.46464702	     93.59093033
      1.11000000	     -5.25458995	     -4.12572274	      5.63383261	      1.40540803	      0.86546138	     -0.15042126	     29.26779711	      6.05065156	     -4.37212002	     20.21163633	      0.35275960	      1.95522031	     -7.06024137	     -7.49997048	      0.77473521	     -7.56738929	     -0.04998387	     49.06919601	      0.85641903	     -4.60981866	     -1.35338664	     -7.49997048	      4.92474033	      5.89755550	     -9.79606895	     -2.99986894	    -10.45928949	    -34.53451469	      8.53981272	     94.42776497	     15.53297726	     -9.91044563	      3.82262689	     39.54110241	     93.33596177
      1.12000000	     -5.02500957	     -4.07719132	      5.50769024	      1.42023643	      0.86730212	     -0.14966656	     27.90311975	      6.30086960	     -4.14575543	     19.97592782	      0.34864571	      2.47979675	     -7.02909733	     -7.49997186	      2.67353096	     -7.58511558	     -0.30984625	     52.20156951	      0.91108926	     -6.67902589	     -2.23888974	     -7.49997186	      4.81487917	      5.91698109	     -9.30367764	     -2.96475838	    -10.43244910	    -34.39228885	      8.78529054	     94.09359229	     14.84207649	     -9.68141898	      3.65621600	     38.86638595	     93.01281859
      1.13000000	     -4.83195037	     -3.91838867	      5.37472704	      1.43482654	      0.86832002	     -0.14892068	     26.50019185	      6.41663081	     -3.89373687	     19.61106331	      0.34227762	      3.01812388	     -6.92598523	     -7.49997309	      4.70580106	     -7.43770336	     -0.61459113	     55.02019830	      0.96028362	     -8.06128513	     -3.17144801	     -7.49997309	      4.70471212	      5.78828107	     -8.79341764	     -2.88329940	    -10.37583233	    -34.18548053	      8.98363704	     94.01866524	     14.18695509	     -9.49497502	      3.44638625	     38.04703800	     92.94572521
      1.14000000	     -4.56379101	     -3.73366651	      5.18851292	      1.44915797	      0.86873979	     -0.14812148	     24.92967771	      6.52959852	     -3.54025930	     19.08058233	      0.33301898	      3.49500439	     -6.78641312	     -7.49997387	      6.72464255	     -7.21385353	     -0.94795242	     57.48076156	      1.00322855	     -8.58676103	     -4.02173506	     -7.49997387	      4.41490964	      5.66432637	     -8.17459709	     -2.74888669	    -10.28012497	    -34.02755068	      9.37147244	     93.81916099	     13.46111739	     -9.40087026	      3.33614364	     37.58819885	     92.75901189
      1.15000000	     -4.38525782	     -3.42640202	      4.98756229	      1.46318233	      0.86867706	     -0.14731417	     23.43070285	      6.47163578	     -3.22368580	     18.54420968	      0.32365752	      3.98516941	     -6.58091396	     -7.49997501	      8.90015002	     -6.77486574	     -1.26486097	     59.49231601	      1.03833679	     -8.54838734	     -5.01448235	     -7.49997501	      4.26510563	      5.33187885	     -7.47046434	     -2.55012059	    -10.17704578	    -33.71736543	      9.62264450	     93.85914792	     12.96136735	     -9.24600661	      3.03521288	     36.48092461	     92.82689937
      1.16000000	     -4.17384860	     -3.01016994	      4.70983695	      1.47686170	      0.86862621	     -0.14628163	     21.84564833	      6.33195305	     -2.73500906	     17.95444058	      0.31336410	      4.53070927	     -6.38584587	     -7.49997550	     11.03759599	     -6.22108663	     -1.70413494	     60.97849319	      1.06427548	     -7.87415672	     -5.69727940	     -7.49997550	      3.91299127	      4.86543134	     -6.79932247	     -2.32037570	     -9.97167173	    -33.60057654	     10.19544762	     93.54373227	     12.16629282	     -9.37696073	      2.98209439	     36.30772220	     92.51966856
      1.17000000	     -3.98676958	     -2.70136083	      4.37423659	      1.49016712	      0.86868692	     -0.14527465	     20.29996321	      6.27255603	     -2.28590341	     17.40765254	      0.30382085	      5.02481558	     -6.18009010	     -7.49997596	     13.21013353	     -5.68104644	     -2.02566048	     61.98327074	      1.08181216	     -6.54341155	     -6.64674190	     -7.49997596	      3.56385878	      4.62493528	     -6.03785350	     -1.98887218	     -9.86477507	    -33.45681578	     10.65485065	     93.30436491	     11.42293335	     -9.44522726	      2.86718925	     35.87023290	     92.27734374
      1.18000000	     -3.84439703	     -2.36849312	      3.98477392	      1.50312069	      0.86910619	     -0.14405067	     18.81095504	      6.16966904	     -1.84419371	     16.91936668	      0.29529866	      5.54463176	     -5.96729807	     -7.49997636	     15.35786134	     -5.09140835	     -2.33447706	     62.40897823	      1.08924215	     -4.90593542	     -7.41595310	     -7.49997636	      3.28961591	      4.32181826	     -5.22313900	     -1.58381101	     -9.79044972	    -33.28171209	     11.04536686	     93.12832221	     10.74365722	     -9.48933510	      2.69555241	     35.24641125	     92.08218217
      1.19000000	     -3.75266151	     -2.03082848	      3.46548022	      1.51573920	      0.86990988	     -0.14246998	     17.44306797	      6.05542988	     -1.39684966	     16.59211348	      0.28958701	      6.23243416	     -5.58931296	     -7.49997753	     17.38680719	     -4.56293284	     -2.74288845	     62.27416779	      1.08688927	     -2.85255384	     -7.41898948	     -7.49997753	      3.21946076	      3.99924167	     -3.87797907	     -1.33505355	     -9.85922752	    -32.33213350	     11.11710066	     93.48290628	     10.87183112	     -9.03268838	      1.84045980	     32.65575846	     92.38197057
      1.20000000	     -3.78368394	     -1.68277181	      2.93433060	      1.52819660	      0.87094219	     -0.14059790	     16.22691298	      5.91848998	     -0.87177866	     16.28893826	      0.28429560	      6.91225412	     -5.31833997	     -7.49997859	     19.32708012	     -4.00109210	     -3.04828666	     61.61814894	      1.07543958	     -1.09207391	     -7.44739819	     -7.49997859	      3.17501298	      3.63924723	     -2.85390111	     -0.97850145	     -9.80521304	    -31.62383917	     11.58543903	     93.50984086	     10.30196145	     -9.05081319	      1.47009725	     31.61317664	     92.51434598
