Coordinates
version=1
nRows=111
nColumns=36
inDegrees=yes

Units are S.I. units (second, meters, Newtons, ...)
If the header above contains a line with 'inDegrees', this indicates whether rotational values are in degrees (yes) or radians (no).

endheader
time	pelvis_tilt	pelvis_list	pelvis_rotation	pelvis_tx	pelvis_ty	pelvis_tz	hip_flexion_r	hip_adduction_r	hip_rotation_r	knee_angle_r	knee_angle_r_beta	ankle_angle_r	subtalar_angle_r	mtp_angle_r	hip_flexion_l	hip_adduction_l	hip_rotation_l	knee_angle_l	knee_angle_l_beta	ankle_angle_l	subtalar_angle_l	mtp_angle_l	lumbar_extension	lumbar_bending	lumbar_rotation	arm_flex_r	arm_add_r	arm_rot_r	elbow_flex_r	pro_sup_r	arm_flex_l	arm_add_l	arm_rot_l	elbow_flex_l	pro_sup_l
      1.19000000	     -0.16856091	      0.32012002	     -1.98036153	     -0.72143513	      1.52065825	     -0.57314596	      3.53484239	     -1.69054927	     -1.10123399	     28.77555424	      0.50222817	     -4.58025887	    -11.85053851	     -7.37505385	      7.93663891	     -2.86044345	     -3.12284759	     33.70980209	      0.58834704	    -16.94464751	    -13.61526126	     -7.37505385	     -9.45276056	      1.71580295	     -6.62052726	    115.96791529	    -38.67096289	     48.29642046	     93.87990656	     64.96735462	    141.20387999	    -75.72078925	     71.39706784	    101.66362746	     74.91800766
      1.20000000	      0.30888264	      0.15284750	     -1.89163910	     -0.71041184	      1.52127782	     -0.57401392	      3.30608676	     -1.61747924	     -1.71833736	     27.25384260	      0.47566929	     -3.96978611	    -11.35763767	     -7.37803201	      7.33939894	     -3.15531289	     -3.69040013	     31.84158572	      0.55574051	    -16.06977108	    -13.25055265	     -7.37803201	     -9.95771689	      1.67278185	     -5.41368718	    118.80040276	    -43.01986196	     51.43665723	     95.47768212	     65.35730372	    142.95880643	    -75.30108905	     73.29168059	    101.05998850	     75.41780993
      1.21000000	      0.64255521	      0.00764302	     -1.82178694	     -0.70029569	      1.52291646	     -0.57447626	      3.21831114	     -1.51026963	     -2.24359181	     25.58273097	      0.44650289	     -3.66259971	    -11.03473585	     -7.38149124	      6.89280264	     -3.37909709	     -4.21129968	     29.87451137	      0.52140859	    -15.38778559	    -12.97152033	     -7.38149124	    -10.38766290	      1.55243140	     -4.13676713	    122.14830228	    -47.58484012	     55.01469699	     97.03469188	     65.24833236	    145.38407820	    -74.80228958	     76.00658816	    100.37043691	     75.88344330
      1.22000000	      0.87635196	     -0.13514743	     -1.72793749	     -0.69029074	      1.52325355	     -0.57478180	      3.26210817	     -1.38704140	     -2.80348559	     23.92141348	      0.41750743	     -3.42328723	    -10.40589252	     -7.43305631	      6.56781016	     -3.57938919	     -4.71301197	     27.88964368	      0.48676611	    -14.61014621	    -12.35697991	     -7.43305631	    -10.81959461	      1.54610483	     -3.68456849	    126.05683531	    -51.02275750	     59.48123230	     98.01559877	     59.20286667	    153.47835805	    -75.15751852	     84.59737576	     99.92083894	     74.25370282
      1.23000000	      1.05864507	     -0.23539037	     -1.63353802	     -0.68024178	      1.52113689	     -0.57532994	      3.37770783	     -1.27298871	     -3.30980287	     22.29390151	      0.38910198	     -3.12978981	     -9.76102340	     -7.43611197	      6.33745533	     -3.71574021	     -5.18821368	     25.99410063	      0.45368264	    -13.70203144	    -11.67432103	     -7.43611197	    -11.13555683	      1.36937316	     -2.34390489	    131.62361981	    -55.29883092	     65.02270443	     98.81530159	     59.69278738	    156.46492391	    -74.32592853	     87.96320397	     98.75776358	     74.80079885
      1.24000000	      1.16930375	     -0.37680206	     -1.58256433	     -0.67047796	      1.51911144	     -0.57636196	      3.57829621	     -1.10903288	     -3.78434192	     20.66713823	      0.36070961	     -3.08181750	     -8.92091981	     -7.43959353	      6.18976376	     -3.86282602	     -5.62147092	     24.11485213	      0.42088357	    -13.02168722	    -10.89497889	     -7.43959353	    -11.35958046	      1.44081497	     -1.24755971	    138.53477017	    -58.46148043	     72.15597623	     98.96993565	     59.31628184	    160.41157436	    -74.05286708	     92.43375570	     97.68019369	     75.15454431
      1.25000000	      1.17278850	     -0.47266522	     -1.52393909	     -0.66055440	      1.51778837	     -0.57709457	      3.89981706	     -0.97560031	     -4.22197065	     19.06383339	      0.33272666	     -3.16388245	     -7.98981865	     -7.44262055	      6.16285943	     -3.95899761	     -6.06395342	     22.24241360	      0.38820335	    -12.54527951	     -9.95308565	     -7.44262055	    -11.41768580	      1.41265602	     -0.32284262	    145.79446797	    -61.10425783	     79.74927980	     98.95324049	     58.56285334	    164.68231458	    -73.73326555	     97.39297242	     96.67509055	     75.39277395
      1.26000000	      1.07485236	     -0.57830126	     -1.47259415	     -0.64987987	      1.51522057	     -0.57739630	      4.33562422	     -0.81489915	     -4.56410364	     17.50715491	      0.30555750	     -3.40631754	     -6.86951114	     -7.44551159	      6.24412020	     -4.05392380	     -6.49547670	     20.38874245	      0.35585069	    -12.22513156	     -8.86381783	     -7.44551159	    -11.26866299	      1.47772583	      0.45749899	    153.62368717	    -62.93654319	     88.07245828	     98.54426124	     57.55059243	    169.15199438	    -73.58655960	    102.66803426	     95.68701137	     75.51405836
      1.27000000	      0.83401647	     -0.66621710	     -1.43846593	     -0.63861129	      1.51056485	     -0.57791037	      4.94633473	     -0.66984423	     -4.81394905	     16.06784306	      0.28043677	     -3.84845102	     -5.83321830	     -7.44905347	      6.50355305	     -4.11172452	     -6.86991953	     18.63160840	      0.32518291	    -12.13281410	     -7.84944365	     -7.44905347	    -10.78462600	      1.58860266	      1.17465563	    161.82638453	    -63.94991583	     96.93681201	     97.69311080	     56.35465579	    172.77018042	    -73.45463134	    107.19226222	     94.61695155	     75.43060620
      1.28000000	      0.58930172	     -0.72532349	     -1.44717873	     -0.62692234	      1.50397659	     -0.57883853	      5.57445107	     -0.57022497	     -5.01819308	     14.72257212	      0.25695736	     -4.40208078	     -4.69136167	     -7.45203046	      6.78506680	     -4.13315575	     -7.26562816	     17.01165837	      0.29690945	    -11.94874957	     -6.69344816	     -7.45203046	    -10.06514612	      1.69521605	      1.82662606	    169.15322957	    -64.15662137	    105.02218341	     96.12890034	     55.48556665	    175.16197817	    -73.15356381	    110.54801600	     93.21611984	     75.49932022
      1.29000000	      0.29170341	     -0.78150535	     -1.48512462	     -0.61461676	      1.49535826	     -0.57936408	      6.28056313	     -0.47739182	     -5.13948592	     13.46752835	      0.23505271	     -5.04218886	     -3.59601270	     -7.45477802	      7.13073146	     -4.15589274	     -7.66026620	     15.51616140	      0.27080810	    -11.80362230	     -5.57790556	     -7.45477802	     -9.05132345	      1.85363536	      2.34895022	    174.83177041	    -63.58370582	    111.62777764	     93.88063207	     54.87759634	    176.22589918	    -72.84164309	    112.52724616	     91.49244737	     75.67315086
      1.30000000	     -0.08609071	     -0.80322678	     -1.53384469	     -0.60221318	      1.48630384	     -0.57896739	      7.09449450	     -0.42018192	     -5.20216848	     12.32478082	      0.21510800	     -5.77821938	     -2.52515865	     -7.45769046	      7.55537676	     -4.14594706	     -7.96999489	     14.09541966	      0.24601148	    -11.62972977	     -4.55699499	     -7.45769046	     -7.65180121	      1.92232504	      2.51475400	    177.17347867	    -62.93161657	    115.08913915	     91.07905689	     54.49028271	    176.84589973	    -72.48050678	    114.14310787	     89.59472182	     75.95354433
      1.31000000	     -0.45064518	     -0.79232438	     -1.57548121	     -0.59073220	      1.47840709	     -0.57807714	      7.86213377	     -0.39961922	     -5.18631927	     11.16569918	      0.19487821	     -6.67559548	     -1.49602051	     -7.45800694	      7.97013429	     -4.11080153	     -8.29139717	     12.71817146	      0.22197397	    -11.51587934	     -3.60714483	     -7.45800694	     -6.23780478	      1.96113393	      2.52413862	    177.66329517	    -62.51951411	    116.24722833	     88.11603939	     54.45146211	    177.08177820	    -72.34739029	    115.16419443	     87.82155904	     76.14296972
      1.32000000	     -0.86663995	     -0.73840150	     -1.69254418	     -0.58002241	      1.46976471	     -0.57716286	      8.74350673	     -0.42840046	     -5.13977668	     10.13028222	      0.17680678	     -7.61030881	     -0.35149041	     -7.46109810	      8.46592957	     -4.05759202	     -8.70635289	     11.44242200	      0.19970794	    -11.18925222	     -2.52606843	     -7.46109810	     -4.69008002	      2.00352144	      2.57032387	    178.53618556	    -61.48998306	    119.06550116	     85.03147972	     55.85909783	    177.89476519	    -72.20640825	    117.62160005	     86.08318185	     76.65156801
      1.33000000	     -1.17122458	     -0.63196459	     -1.85846906	     -0.56926535	      1.45823728	     -0.57667611	      9.54353598	     -0.49881928	     -4.78727973	      9.10626646	      0.15893433	     -8.68698403	      0.50543925	     -7.46713559	      8.86174134	     -3.95506755	     -9.15200143	     10.25074736	      0.17890929	    -10.96231954	     -1.59249077	     -7.46713559	     -3.36343577	      1.92212636	      2.70917387	    178.82641790	    -60.61759757	    120.66460406	     81.61897421	     56.82924724	    178.12335073	    -71.92527271	    118.80060470	     84.21471041	     76.78078225
      1.34000000	     -1.70312028	     -0.51429911	     -1.88789283	     -0.55797360	      1.44415160	     -0.57682309	     10.63078507	     -0.62981916	     -4.74932884	      8.20973616	      0.14328693	     -9.67727642	      1.54246607	     -7.47032476	      9.65052863	     -3.85242663	     -9.42897449	      9.36381257	      0.16342936	    -10.65414655	     -0.79451060	     -7.47032476	     -1.76939958	      1.81214457	      2.72833704	    178.97997538	    -59.79200477	    122.17177158	     78.21618762	     57.92573405	    178.54127277	    -71.41342485	    120.45858206	     82.28236168	     77.12110194
      1.35000000	     -2.11365710	     -0.35719170	     -1.99886353	     -0.54679233	      1.42996611	     -0.57681325	     11.65411536	     -0.79580701	     -4.47880464	      7.43753219	      0.12980942	    -10.83036752	      2.20272435	     -7.47627172	     10.35934360	     -3.73159805	     -9.73796763	      8.58679414	      0.14986783	    -10.38166673	     -0.21176583	     -7.47627172	     -0.40661324	      1.64792048	      2.88086538	    179.12279360	    -58.89804819	    123.81133957	     74.64882317	     59.35170719	    178.71917353	    -70.89823773	    121.66379174	     80.28871638	     76.69311766
      1.36000000	     -2.55870480	     -0.15590303	     -2.10222110	     -0.53569675	      1.41571273	     -0.57654211	     12.75671071	     -1.03226355	     -4.37414164	      6.80716721	      0.11880748	    -11.90060777	      3.03059408	     -7.48405196	     11.22309587	     -3.59827342	    -10.15763092	      8.02516881	      0.14006562	    -10.04171476	      0.40943560	     -7.48405196	      0.94546921	      1.41380144	      3.06933824	    179.21606764	    -58.18913809	    125.26334244	     71.24335699	     64.02095175	    178.86431346	    -70.47986865	    122.50175694	     78.46522386	     81.12312287
      1.37000000	     -2.94950539	      0.06769019	     -2.19509014	     -0.52453619	      1.40027364	     -0.57653055	     13.85799779	     -1.30757376	     -4.27306526	      6.34938225	      0.11081763	    -12.92099823	      3.71295676	     -7.48743078	     12.12664571	     -3.46368835	    -10.59512305	      7.66715239	      0.13381705	     -9.73920422	      0.91028885	     -7.48743078	      2.25841614	      1.15348481	      3.30705853	    179.30339013	    -57.46277207	    127.16222952	     67.88015768	     64.70548375	    178.96803467	    -70.08004492	    123.67988810	     76.72815476	     80.10015478
      1.38000000	     -3.24757652	      0.31273789	     -2.26868082	     -0.51346702	      1.38390945	     -0.57699322	     14.87901305	     -1.62351645	     -4.19105938	      6.01177287	      0.10492523	    -13.86286567	      4.32001287	     -7.49289043	     13.00759384	     -3.31408770	    -11.01182876	      7.51867059	      0.13122556	     -9.47421246	      1.31191653	     -7.49289043	      3.46692862	      0.90175138	      3.64229621	    179.37111608	    -56.91357695	    128.66810470	     64.69842977	     68.29384825	    179.06165933	    -69.85254097	    124.66926579	     75.17130248	     82.10496695
      1.39000000	     -3.46154933	      0.55027801	     -2.35516974	     -0.50264518	      1.36786011	     -0.57738044	     15.82342693	     -1.93371597	     -4.09512154	      5.77839318	      0.10085199	    -14.82818798	      4.83428978	     -7.49363363	     13.82682554	     -3.18780451	    -11.49129345	      7.47554532	      0.13047288	     -9.24688287	      1.73643686	     -7.49363363	      4.63869392	      0.67044724	      4.06661698	    179.42653457	    -56.67509621	    130.26530550	     62.05841073	     68.67778340	    179.13280193	    -69.81363767	    125.94408130	     73.91539207	     81.69067188
      1.40000000	     -3.73524925	      0.74798330	     -2.43776090	     -0.49087929	      1.35137847	     -0.57784866	     16.80813041	     -2.21161971	     -3.96948854	      5.61307179	      0.09796658	    -15.78902457	      5.26860819	     -7.49484184	     14.73405021	     -3.10385976	    -11.76853540	      7.54962138	      0.13176575	     -9.23162375	      1.93520162	     -7.49484184	      5.97760654	      0.55399274	      4.48529099	    179.47761173	    -56.72123144	    131.68643018	     60.08746720	     69.19411353	    179.20222692	    -70.17067326	    127.36094260	     73.01429799	     80.79646551
      1.41000000	     -3.89748084	      0.96763278	     -2.61114740	     -0.47701293	      1.33322531	     -0.57854131	     17.63438489	     -2.50106189	     -3.77023055	      5.52498000	      0.09642909	    -16.66110340	      5.68733812	     -7.49536433	     15.43206485	     -3.02186694	    -12.19205791	      7.63044780	      0.13317644	     -9.31839771	      2.32481353	     -7.49536433	      7.32305705	      0.43483978	      4.92346628	    179.52060266	    -56.97505587	    133.14506035	     58.46997432	     70.36055971	    179.22879581	    -70.91968382	    128.35222542	     72.44101075	     81.44782762
      1.42000000	     -3.97093255	      1.14358388	     -2.79828595	     -0.46233608	      1.31335014	     -0.57908294	     18.29208487	     -2.75294539	     -3.56824454	      5.52106452	      0.09636075	    -17.45941132	      6.04772372	     -7.49609834	     15.97691468	     -2.98295377	    -12.50585245	      7.78549513	      0.13588252	     -9.44886442	      2.70478423	     -7.49609834	      8.66780872	      0.40316429	      5.42315116	    179.55185799	    -57.63372014	    133.90082040	     57.62849463	     71.39203625	    179.25220040	    -71.97325073	    129.43724484	     72.32517822	     81.51315362
      1.43000000	     -3.98094782	      1.24187401	     -2.92151921	     -0.44913855	      1.29259655	     -0.57885730	     18.81278419	     -2.95240924	     -3.43439756	      5.58144235	      0.09741455	    -18.28958593	      6.22721936	     -7.49791111	     16.45029122	     -3.00260600	    -12.57634639	      8.07702563	      0.14097069	     -9.72364847	      2.78451245	     -7.49791111	      9.97610881	      0.48475998	      5.78879710	    179.57724275	    -58.58044328	    134.00666839	     57.41939021	     76.73516131	    179.24494967	    -73.40758201	    129.99705089	     72.28479269	     85.21529837
      1.44000000	     -3.90064801	      1.33786090	     -3.05481863	     -0.43784345	      1.27176570	     -0.57780882	     19.23304073	     -3.14974072	     -3.30946375	      5.76252534	      0.10057504	    -19.10525473	      6.37108351	     -7.49828974	     16.81255411	     -3.06015951	    -12.85631569	      8.47875412	      0.14798218	     -9.92619390	      3.15692052	     -7.49828974	     11.25827091	      0.54268878	      6.11054389	    179.59674670	    -59.87027133	    134.28483902	     57.93690967	     76.77323048	    179.24320974	    -74.75419619	    131.33799204	     71.91534717	     84.53567755
      1.45000000	     -3.82237940	      1.40852462	     -3.18030190	     -0.42718190	      1.25176269	     -0.57690342	     19.67162841	     -3.32811304	     -3.09625331	      6.15973803	      0.10750771	    -19.95400344	      6.26030294	     -7.49859187	     17.19515321	     -3.16093539	    -13.08091979	      9.01170624	      0.15728395	    -10.33553722	      3.31013900	     -7.49859187	     12.62303404	      0.69797410	      6.39516965	    179.61401094	    -61.53989596	    134.11453028	     59.27204609	     77.38535472	    179.20872070	    -76.59888640	    132.52206026	     71.56941055	     84.64907955
      1.46000000	     -3.61458861	      1.40830178	     -3.29519561	     -0.41621097	      1.23215912	     -0.57658605	     20.00240838	     -3.46172328	     -2.94623587	      6.87308085	      0.11995789	    -20.70174974	      6.04490809	     -7.49892997	     17.48827023	     -3.34152197	    -13.32437672	      9.74225075	      0.17003435	    -10.88084286	      3.31027589	     -7.49892997	     13.91646456	      1.06251270	      6.74965354	    179.62243879	    -63.66913162	    132.92983051	     61.47625903	     79.01918043	    179.13077566	    -79.12285355	    133.26232677	     71.32293255	     85.67933469
      1.47000000	     -3.08386056	      1.30923133	     -3.42098121	     -0.40566957	      1.21020135	     -0.57645203	     20.11408429	     -3.50774448	     -2.71758907	      8.01647948	      0.13991396	    -21.20291917	      5.62359402	     -7.49910549	     17.51060094	     -3.60957375	    -13.43981121	     10.71100791	      0.18694235	    -11.42136654	      3.14911722	     -7.49910549	     14.47418631	      1.67195299	      6.95998902	    179.61714828	    -66.23157967	    129.99684663	     64.79090466	     78.09239561	    178.66804585	    -83.57886553	    129.67751264	     71.76332895	     83.99969353
      1.48000000	     -3.04706931	      1.15976769	     -3.51581531	     -0.39527665	      1.18425255	     -0.57607231	     20.79257020	     -3.45907246	     -2.52139037	      9.41718225	      0.16436084	    -21.73435487	      5.15618423	     -7.50017926	     18.08539607	     -4.00310008	    -13.79163426	     11.89326265	      0.20757659	    -11.86293110	      3.66252504	     -7.50017926	      2.52575171	     -1.95749726	    -13.47713831	    177.84153195	    -75.69531366	    123.38170442	     78.70917358	     76.08629352	     80.82551567	   -155.03294418	     42.13068905	     91.08575470	     64.67835505
      1.49000000	     -2.72278246	      0.97827941	     -3.57352112	     -0.38588142	      1.15578259	     -0.57557899	     21.41463905	     -3.37782077	     -2.17827776	     11.38193550	      0.19865225	    -21.97133025	      4.41614371	     -7.50014444	     18.57213639	     -4.43386685	    -13.81405984	     13.50486758	      0.23570440	    -12.34539869	      3.69807734	     -7.50014444	      2.53512441	     -1.89915397	    -14.23023479	    177.33496556	    -78.74216091	    122.50299927	     81.46207827	     76.01201552	     82.85285639	   -157.89866902	     45.81131178	     90.17581310	     65.37272274
      1.50000000	     -2.31319872	      0.71990608	     -3.53201814	     -0.37629973	      1.12795277	     -0.57540123	     22.10715195	     -3.22046645	     -1.77300650	     13.82079960	      0.24121846	    -21.81778516	      3.46126698	     -7.50013798	     19.16177956	     -4.94718063	    -13.61955042	     15.52877307	      0.27102822	    -12.52867070	      3.63706968	     -7.50013798	      2.25044904	     -1.80891021	    -15.17428523	    176.74128556	    -82.03679478	    121.82985619	     84.29429511	     75.96779253	     85.01308383	   -160.78846525	     49.61007889	     88.97491907	     65.71232721
      1.51000000	     -1.89039906	      0.39592547	     -3.35553701	     -0.36658269	      1.10143956	     -0.57545021	     23.03025871	     -3.01564724	     -1.45980909	     16.92449641	      0.29538819	    -21.01396106	      2.34027306	     -7.50012869	     19.99177257	     -5.52375323	    -13.14052380	     18.11759648	      0.31621171	    -12.14972857	      3.28130862	     -7.50012869	      1.81106246	     -1.52432099	    -16.31451582	    175.13033940	    -85.82031685	    120.05658933	     87.96297264	     75.92983897	     87.33352401	   -163.96510744	     54.49428100	     87.36575687	     66.38149668
      1.52000000	     -1.63047462	      0.13588681	     -3.17804860	     -0.35711728	      1.07613539	     -0.57480640	     24.34602967	     -2.79163925	     -1.00908092	     20.70453096	      0.36136224	    -19.10087956	      0.87939566	     -7.50009692	     21.17693047	     -6.08645194	    -12.35798838	     21.33599219	      0.37238331	    -10.86079605	      2.78365641	     -7.50009692	     -1.78279811	      0.41270753	      1.86933991	     85.59939830	   -130.16901904	     33.47381253	    100.50897600	     64.90475775	     95.85887804	   -144.85768953	     62.19738086	     90.44966039	     74.14726121
      1.53000000	     -1.03462785	     -0.28059303	     -2.78764007	     -0.34952408	      1.05190924	     -0.57451286	     25.50770132	     -2.51148574	     -0.85896915	     25.16258857	      0.43917002	    -16.28313357	     -0.66557182	     -7.50009192	     22.36980346	     -6.70717161	    -11.09268632	     25.34223619	      0.44230546	     -8.85356147	      1.96746062	     -7.50009192	     -2.78272162	      1.14372746	      1.11479274	     91.61221474	   -131.62378016	     39.65354738	    104.85153953	     65.14217401	     99.76997081	   -148.55781287	     69.20689709	     88.71183655	     74.64991367
      1.54000000	     -0.41772546	     -0.62725268	     -2.31810361	     -0.34317827	      1.02797947	     -0.57402161	     26.81678024	     -2.28506248	     -0.78756683	     30.15111045	      0.52623615	    -12.56212306	     -2.20457194	     -7.50008799	     23.82256616	     -7.23399385	     -9.64107163	     29.95209807	      0.52276273	     -6.27787178	      1.07198580	     -7.50008799	     -4.00142454	      1.60340216	      0.50283141	     98.27795986	   -133.85290669	     47.50338956	    108.65954017	     65.52364701	    103.45484574	   -151.53018818	     76.16512185	     86.10884084	     75.49975200
      1.55000000	      0.04249351	     -0.77354151	     -2.05127721	     -0.33822165	      1.00515503	     -0.57315364	     28.50144158	     -2.11143284	     -0.47788013	     35.50379013	      0.61965803	     -8.13518668	     -3.67358755	     -7.50008345	     25.60995221	     -7.62332985	     -8.38118977	     34.91803191	      0.60943463	     -3.36173494	      0.11671837	     -7.50008345	     -5.10223685	      1.50375832	     -0.35241129	    105.76697657	   -135.67310956	     57.50523361	    111.47997224	     66.41756585	    106.49804804	   -154.43407802	     83.38804401	     83.53876915	     78.16975249
      1.56000000	      0.72246082	     -1.10467724	     -1.40520502	     -0.33493276	      0.98562483	     -0.57265946	     29.81588374	     -1.95816553	     -0.71834300	     40.67625004	      0.70993449	     -3.31048393	     -4.86909014	     -7.50006101	     27.42623090	     -7.92484365	     -6.57244636	     40.19907288	      0.70160618	      0.02280337	     -0.65495274	     -7.50006101	     -6.30576510	      1.73717602	     -1.86972229	    112.64460896	   -137.40942551	     68.72861857	    114.45682873	     71.79872197	    110.58598506	   -157.26896604	     90.17031345	     81.01125513	     89.51069739
      1.57000000	      1.36512276	     -1.32336667	     -0.87760795	     -0.33343783	      0.96853038	     -0.57163227	     31.26504748	     -1.84725510	     -0.86020953	     45.87789232	      0.80072027	      1.84448969	     -5.72561064	     -7.50006380	     29.24952297	     -8.08818295	     -4.95670912	     45.45748004	      0.79338270	      3.67812765	     -1.22628888	     -7.50006380	     -7.57915643	      1.97704498	     -1.90915337	    118.02263089	   -141.13620288	     79.13979910	    117.38094271	     73.05030924	    115.72001443	   -158.29939741	     98.37651008	     78.62177803	     91.41568778
      1.58000000	      1.95826035	     -1.54160750	     -0.31868855	     -0.33329153	      0.95321958	     -0.57105708	     32.73611949	     -1.71037837	     -0.97560417	     50.87878025	      0.88800223	      6.86144947	     -6.45757305	     -7.50006859	     31.06144829	     -8.12317827	     -3.32019649	     50.55250018	      0.88230757	      7.35712747	     -1.77914750	     -7.50006859	     -8.83374356	      2.08062347	     -2.22600207	    123.48478370	   -144.00422218	     89.96192965	    119.43311471	     74.96165630	    120.88589994	   -159.58293744	    106.16548897	     76.12865526	     94.05041460
      1.59000000	      2.55113206	     -1.75463061	      0.30430286	     -0.33416077	      0.93968341	     -0.57148992	     34.12403151	     -1.58084327	     -1.12822872	     55.55607155	      0.96963637	     11.40062010	     -7.28524480	     -7.50006733	     32.80893640	     -8.00427527	     -1.66619149	     55.37799978	      0.96652843	     10.79659682	     -2.38211741	     -7.50006733	    -10.14779135	      1.80131921	     -3.68543277	    130.70895373	   -145.25952335	    102.24552696	    119.65821677	     80.84388748	    125.80960885	   -162.16528667	    111.61039940	     73.97898531	     96.87972940
      1.60000000	      3.01619216	     -1.89481260	      0.83869729	     -0.33555733	      0.92743068	     -0.57226023	     35.54209738	     -1.47802432	     -1.18480968	     59.82586473	      1.04415832	     15.60664374	     -7.87408655	     -7.50007372	     34.54778940	     -7.76142838	     -0.21180494	     59.81713802	      1.04400601	     14.08053576	     -2.85267160	     -7.50007372	    -11.51132413	      1.63781922	     -3.73424418	    136.66324298	   -148.05229034	    111.69149658	    118.86511897	     86.21386993	    132.07147599	   -163.23208896	    117.43716589	     71.27510613	     99.46567266
      1.61000000	      3.39540805	     -2.02493533	      1.38265950	     -0.33754695	      0.91672421	     -0.57218848	     36.84525236	     -1.37025385	     -1.23925515	     63.50190401	      1.10831731	     19.28744675	     -8.33376297	     -7.50007670	     36.21636008	     -7.43475467	      1.14945422	     63.76329886	      1.11287951	     16.99821028	     -3.35717285	     -7.50007670	    -12.93014741	      1.51230606	     -3.34917944	    142.25223218	   -151.12019239	    119.39747509	    117.08350382	     90.30667646	    138.85549742	   -163.85668934	    123.20224256	     68.58799445	     99.17523741
      1.62000000	      3.81942825	     -2.08583068	      1.88333525	     -0.34062180	      0.90891283	     -0.57115223	     37.85942964	     -1.25907188	     -1.20176346	     66.52771318	      1.16112764	     22.32465321	     -8.80963207	     -7.50007638	     37.56695085	     -7.02851223	      2.33174656	     67.08194434	      1.17080080	     19.58599914	     -3.77616941	     -7.50007638	    -14.70114010	      1.25265605	     -2.39295837	    147.26921429	   -154.45338478	    125.27465037	    114.48784110	     91.09056435	    146.11943137	   -164.30298596	    128.73912827	     66.68581951	     98.90184919
      1.63000000	      3.74750737	     -2.08881964	      2.30400172	     -0.34433320	      0.90303453	     -0.57012752	     39.17862670	     -1.16740825	     -1.08879515	     69.01142302	      1.20447655	     24.81756384	     -9.13195949	     -7.50004591	     39.14353228	     -6.56413397	      3.31705637	     69.77063416	      1.21772729	     21.72910758	     -4.24140984	     -7.50004591	    -15.89798023	      0.96849132	     -2.54822435	    153.30995899	   -156.70217718	    131.62644368	    111.22246412	     95.95434019	    152.79286419	   -165.10430480	    133.32136341	     64.21126477	     97.84019817
      1.64000000	      3.83753796	     -2.07138511	      2.60947946	     -0.34801310	      0.89790339	     -0.56996579	     40.08318403	     -1.03147622	     -0.90849716	     70.93715753	      1.23808696	     26.83066426	     -9.48200585	     -7.50003906	     40.20708622	     -6.12367711	      4.09074599	     71.82455057	      1.25357489	     23.59017331	     -4.64611820	     -7.50003906	    -17.55935408	      0.66148358	     -1.82676020	    158.39736037	   -158.97816530	    136.54518872	    107.74308930	     91.60079946	    160.02968137	   -165.28083802	    139.24560048	     62.29947752	     92.69831037
      1.65000000	      3.52097122	     -2.10958690	      2.84526934	     -0.35033429	      0.89164437	     -0.57015577	     41.23431281	     -0.83246939	     -0.71816953	     72.39662240	      1.26355943	     28.31637319	     -9.83194606	     -7.49999545	     41.49017805	     -5.74541295	      4.73231128	     73.41737158	      1.28137486	     25.14229122	     -5.06362288	     -7.49999545	    -18.76263629	      0.42804651	     -1.28816545	    -16.55794515	    -19.02000724	    -40.20366764	    104.95141541	     99.60085860	    -12.82595858	    -14.20274745	    -36.00632583	     61.01764544	     96.85863729
      1.66000000	      3.13024563	     -2.12049339	      2.97880853	     -0.35208873	      0.88566008	     -0.57003825	     42.33106107	     -0.64240377	     -0.47860195	     73.52955108	      1.28333276	     29.60209297	     -9.94483489	     -7.49999560	     42.66921562	     -5.44805663	      5.13392017	     74.63188652	      1.30257215	     26.50523504	     -5.31565879	     -7.49999560	    -19.95968904	      0.10268267	     -1.40981855	    -11.45451593	    -17.88441967	    -35.89213545	    102.81394121	     98.13413055	     -6.86037660	    -13.75853395	    -31.21311015	     61.55248910	     95.31466226
      1.67000000	      2.51801590	     -2.11559383	      3.11056524	     -0.35492512	      0.88129706	     -0.56981149	     43.53556134	     -0.50372338	     -0.22816905	     74.32848071	      1.29727672	     30.34869010	    -10.22168129	     -7.49999619	     43.96517679	     -5.12400853	      5.45966936	     75.49136036	      1.31757280	     27.43365759	     -5.75211424	     -7.49999619	    -20.81026385	     -0.16269683	     -1.40773642	     -6.83008158	    -17.13903499	    -32.02831498	    101.86380211	     96.73841534	     -0.96411293	    -13.66194326	    -25.68105570	     62.62724827	     93.72037920
      1.68000000	      1.75236919	     -2.04288543	      3.08574428	     -0.35803475	      0.87950279	     -0.56937403	     44.72512028	     -0.37551317	      0.11743098	     74.74290342	      1.30450976	     30.75046887	    -10.40577823	     -7.49999651	     45.19261738	     -4.88664665	      5.52234192	     75.95531992	      1.32567042	     28.13291620	     -6.21456215	     -7.49999651	    -21.37537708	     -0.58915272	     -1.11305964	     -2.37946830	    -16.66541920	    -28.64316105	    101.17198415	     96.47237629	      4.93843644	    -13.81639921	    -19.73931488	     63.83815243	     93.17683867
      1.69000000	      0.90538322	     -1.91225496	      3.08031824	     -0.35945393	      0.87973773	     -0.56863042	     45.79052901	     -0.28511430	      0.51809073	     74.81917603	      1.30584097	     30.85329201	    -10.62817690	     -7.49999709	     46.26295697	     -4.59802118	      5.53437118	     76.01481368	      1.32670878	     28.51582426	     -6.64310404	     -7.49999709	    -21.44753188	     -1.35703224	      2.84127169	     -1.61061674	    -16.30768507	    -30.82168926	    102.32109173	     99.94552926	     14.55937625	    -13.36494508	     -8.81831688	     61.42207682	     94.81922944
      1.70000000	      0.24014857	     -1.83921833	      3.02685656	     -0.35973051	      0.88052091	     -0.56764924	     46.48549906	     -0.13471915	      0.84513428	     74.61390365	      1.30225829	     30.84143465	    -10.73814684	     -7.49999734	     46.94387061	     -4.48496945	      5.45153213	     75.78360158	      1.32267337	     28.87972352	     -6.88446357	     -7.49999734	    -21.81291603	     -1.80323215	      2.24070892	      3.23788123	    -16.92050576	    -26.42492479	    101.78577652	     99.07047456	     19.66227903	    -13.46362847	     -4.31258447	     63.06068771	     93.80356176
      1.71000000	     -0.55744738	     -1.73583694	      2.93272460	     -0.36105239	      0.87878075	     -0.56679866	     47.36125638	     -0.02559910	      1.17956278	     74.44416745	      1.29929583	     30.81072401	    -10.75242270	     -7.49999753	     47.75728799	     -4.43091348	      5.25289218	     75.52322638	      1.31812896	     29.18578354	     -7.02494162	     -7.49999753	    -21.92787495	     -2.29972450	      2.07136691	      7.74268909	    -17.91733216	    -22.52021680	    101.76396631	     98.06350589	     24.99684774	    -13.79594017	      0.71990016	     64.65346212	     93.01473128
      1.72000000	     -1.41155122	     -1.63938697	      2.91912349	     -0.36351750	      0.87393980	     -0.56611688	     48.41195808	     -0.00643863	      1.41187680	     74.46841454	      1.29971902	     30.93340397	    -10.71645063	     -7.49999781	     48.76937954	     -4.38183339	      5.06765669	     75.44356752	      1.31673865	     29.49482534	     -7.14592742	     -7.49999781	    -21.81631151	     -2.71621107	      1.51591609	     12.80906653	    -18.87270831	    -18.38680692	    101.74512951	     94.63213648	     29.90774734	    -14.72405038	      5.61524140	     66.83430749	     89.93162623
      1.73000000	     -2.32319282	     -1.56661902	      2.86638719	     -0.36599477	      0.86795238	     -0.56522823	     49.63889488	      0.03277793	      1.62730807	     74.66421665	      1.30313641	     31.20254773	    -10.53264545	     -7.49999812	     49.97368571	     -4.42741691	      4.82196889	     75.56885610	      1.31892535	     29.87695078	     -7.16348199	     -7.49999812	    -21.72356252	     -3.01375982	      1.08932000	     17.79891357	    -20.27495951	    -14.14698359	    102.49564262	     91.72163279	     34.61065116	    -15.51777617	      9.40378871	     69.36056439	     87.01331738
      1.74000000	     -3.31672189	     -1.49215595	      2.76065802	     -0.36819273	      0.86357213	     -0.56404156	     50.99386928	      0.08158894	      1.85162815	     74.91724041	      1.30755251	     31.53410248	    -10.23651930	     -7.49999825	     51.31515165	     -4.53703166	      4.50184515	     75.76934324	      1.32242451	     30.25704938	     -7.10196465	     -7.49999825	    -21.67776862	     -3.30323960	      1.28981260	     22.14942396	    -22.11043785	    -10.74922643	    103.98866573	     90.91866417	     39.38956848	    -15.62997286	     12.19137177	     71.46140062	     86.22988027
      1.75000000	     -4.18948138	     -1.43241485	      2.72780008	     -0.37002337	      0.86242415	     -0.56282058	     52.12260165	      0.07766258	      1.97143376	     75.02394601	      1.30941488	     31.73495366	    -10.04743745	     -7.49999864	     52.45045960	     -4.62612082	      4.23522070	     75.80315197	      1.32301459	     30.51952858	     -7.07270900	     -7.49999864	    -21.69457345	     -3.22881780	     -0.21803042	     28.42278227	    -22.99315969	     -4.91344198	    103.32959280	     87.28960434	     42.71269971	    -17.90812232	     14.23530937	     74.75360732	     81.16387233
      1.76000000	     -5.14838576	     -1.34786065	      2.61705647	     -0.37066215	      0.86294239	     -0.56187132	     53.20721695	      0.11120389	      2.13963825	     74.94934685	      1.30811287	     31.82523529	     -9.79659866	     -7.49999865	     53.49288432	     -4.78983095	      3.86954211	     75.62126269	      1.31984002	     30.72366347	     -6.91689069	     -7.49999865	    -21.82886719	     -3.47712436	      0.37076084	     31.73716752	    -24.99978673	     -2.56046626	    105.03726718	     87.82989930	     46.76925978	    -18.06818663	     16.23013067	     76.58237973	     81.80264322
      1.77000000	     -6.07234170	     -1.25665807	      2.50690974	     -0.37084335	      0.86296398	     -0.56164912	     54.20126677	      0.12318540	      2.29238089	     74.80629497	      1.30561615	     31.83773244	     -9.57944100	     -7.49999867	     54.42576150	     -4.95126347	      3.50342101	     75.35911762	      1.31526472	     30.87517303	     -6.72205769	     -7.49999867	    -21.88670464	     -3.63004976	      0.83358306	     35.02550426	    -26.84442893	     -0.12746022	    106.47536051	     87.86851454	     50.27471954	    -18.52908005	     17.97222486	     78.30605750	     82.06068832
      1.78000000	     -6.92961798	     -1.19800791	      2.42268166	     -0.37196726	      0.86228376	     -0.56216266	     55.14238860	      0.10818085	      2.39448145	     74.66269435	      1.30310984	     31.77241115	     -9.38749438	     -7.49999892	     55.33004436	     -5.09393780	      3.18582387	     75.16137807	      1.31181352	     30.96935512	     -6.56981885	     -7.49999892	    -21.95254130	     -3.25580487	     -0.45110633	     40.56219366	    -27.09743940	      5.05001395	    105.97903540	     83.34545656	     52.03333247	    -20.97624827	     17.77845590	     81.50136140	     78.54735602
      1.79000000	     -7.94820634	     -1.07019809	      2.28729017	     -0.37436824	      0.86206907	     -0.56259173	     56.27377550	      0.06801613	      2.57868605	     74.51676668	      1.30056293	     31.62059801	     -9.18742660	     -7.49999893	     56.36551581	     -5.21516791	      2.78927189	     74.94041288	      1.30795695	     31.01204809	     -6.40990882	     -7.49999893	    -22.09342952	     -3.42737542	      0.21813652	     43.50194041	    -28.66630220	      6.38453244	    107.27659142	     83.74030771	     55.03766724	    -21.32148271	     18.56049310	     82.93816732	     78.99751703
      1.80000000	     -8.94212956	     -0.95489251	      2.22092827	     -0.37761485	      0.86277903	     -0.56281124	     57.35004454	     -0.01751961	      2.72479111	     74.28902881	      1.29658815	     31.39897342	     -9.00406472	     -7.49999895	     57.37711010	     -5.27262435	      2.45309522	     74.66191127	      1.30309618	     30.96385205	     -6.29510668	     -7.49999895	    -22.30388393	     -3.50091970	      0.72019408	     46.32592148	    -30.04290082	      7.63337081	    108.25297420	     83.77687754	     57.60641256	    -21.94269548	     19.16519543	     84.26072136	     79.21959638
      1.81000000	     -9.80279884	     -0.90298569	      2.21546180	     -0.38058549	      0.86365478	     -0.56301763	     58.25041106	     -0.14599208	      2.73556067	     73.97457362	      1.29109987	     31.13538191	     -8.83929540	     -7.49999909	     58.25539879	     -5.28841317	      2.23587321	     74.30391750	      1.29684801	     30.87481175	     -6.18928440	     -7.49999909	    -22.57824724	     -3.09757789	     -0.06477623	     50.32050264	    -30.02055260	     10.74931134	    107.89111662	     81.22822905	     58.45619927	    -24.24889271	     18.23752447	     86.91068690	     78.35565639
      1.82000000	    -10.76004640	     -0.79479604	      2.14869239	     -0.38210712	      0.86390495	     -0.56333445	     59.22661515	     -0.25712975	      2.83598237	     73.63838829	      1.28523233	     30.86263002	     -8.61465295	     -7.49999911	     59.17275543	     -5.30268018	      1.93712732	     73.90250262	      1.28984200	     30.77603698	     -6.05255507	     -7.49999911	    -22.71374522	     -3.15095779	      0.52230120	     51.86891469	    -31.26098516	     11.12740572	    109.01389752	     81.08794636	     59.65945434	    -24.95477647	     18.14517287	     88.64404619	     78.41167808
      1.83000000	    -11.63083144	     -0.71358885	      2.08612896	     -0.38222205	      0.86380556	     -0.56385364	     60.04657429	     -0.35213566	      2.90325444	     73.26804738	      1.27876866	     30.64618296	     -8.42595501	     -7.49999914	     59.94666111	     -5.31153575	      1.67043384	     73.51067192	      1.28300326	     30.72756643	     -5.98131999	     -7.49999914	    -22.88121862	     -3.15216642	      0.96137127	     53.07446657	    -32.37678476	     11.41717727	    110.18024403	     80.59721044	     60.22468920	    -25.84698242	     17.76636467	     90.60906560	     78.28186744
      1.84000000	    -12.51031339	     -0.63699845	      2.01551680	     -0.38145438	      0.86288167	     -0.56414838	     60.86888224	     -0.42952390	      2.98026357	     72.97442545	      1.27364399	     30.46353734	     -8.27127105	     -7.49999923	     60.69352424	     -5.30026674	      1.44235361	     73.16567859	      1.27698199	     30.67507712	     -5.97191165	     -7.49999923	    -22.95899993	     -2.95920877	      0.84871486	     54.33336274	    -32.56340928	     12.04485684	    110.93838372	     79.02446422	     59.67713588	    -27.36883096	     16.12462987	     93.29351593	     78.34970351
      1.85000000	    -13.21668265	     -0.55607002	      1.89379218	     -0.38059954	      0.86136440	     -0.56388764	     61.53948529	     -0.44660044	      3.06393865	     72.77002104	      1.27007646	     30.38524072	     -8.08238067	     -7.49999923	     61.27953986	     -5.36346820	      1.16607680	     72.92568780	      1.27279336	     30.70905269	     -5.89473213	     -7.49999923	    -23.10035203	     -2.99568272	      1.33921967	     54.70113152	    -33.51067226	     11.89901731	    112.04645767	     78.89189417	     59.51718085	    -28.26627284	     15.60193261	     95.06802079	     78.45631501
      1.86000000	    -14.01153536	     -0.50091239	      1.82176420	     -0.38013451	      0.85939287	     -0.56346134	     62.36263897	     -0.48637526	      3.10199588	     72.68669427	      1.26862214	     30.30403683	     -8.00656033	     -7.49999935	     62.03951246	     -5.39232836	      0.95889769	     72.79861131	      1.27057546	     30.66294607	     -5.95501788	     -7.49999935	    -23.15247056	     -2.93146446	      1.33594167	     54.73358281	    -33.69490884	     11.60797876	    113.07099782	     76.46929567	     58.21890336	    -29.50353084	     13.96887393	     97.65351148	     76.70691916
      1.87000000	    -14.77629273	     -0.46015208	      1.78111690	     -0.38047899	      0.85736740	     -0.56317163	     63.23501177	     -0.54039726	      3.11488994	     72.73262815	      1.26942383	     30.24481448	     -7.91152525	     -7.49999940	     62.85744843	     -5.41380982	      0.80662517	     72.79083816	      1.27043979	     30.63886846	     -5.97959479	     -7.49999940	    -23.19630710	     -2.80419840	      1.21741967	     54.60963965	    -33.70249671	     11.46726440	    113.81460541	     76.71774321	     56.54164759	    -30.72481980	     12.02850904	     99.86397679	     78.20773600
      1.88000000	    -15.39777928	     -0.40559276	      1.73116716	     -0.38105551	      0.85548996	     -0.56321287	     63.95682686	     -0.59220975	      3.13795740	     72.76964601	      1.27006992	     30.32010306	     -7.67246553	     -7.49999941	     63.54558906	     -5.45941766	      0.64034918	     72.81337577	      1.27083315	     30.74266584	     -5.83355410	     -7.49999941	    -23.49950878	     -2.84210326	      1.48654216	     53.86177192	    -34.31852654	     10.84242800	    114.94466055	     76.77402270	     55.23908556	    -31.62156446	     11.04281897	    101.56877361	     78.49542925
      1.89000000	    -16.19370209	     -0.40215242	      1.71881066	     -0.38079493	      0.85270843	     -0.56371226	     64.88267719	     -0.64023028	      3.12386576	     72.89704568	      1.27229346	     30.33924801	     -7.65381851	     -7.49999943	     64.46922476	     -5.46879012	      0.57488360	     72.91355706	      1.27258164	     30.80038114	     -5.91026958	     -7.49999943	    -23.57224424	     -2.77401188	      1.48027912	     52.59104245	    -34.15713076	      9.63315268	    115.92349339	     76.54429110	     52.90966463	    -32.27115719	      8.76883031	    103.44951977	     78.77416749
      1.90000000	    -16.81560711	     -0.39308143	      1.67834648	     -0.37998311	      0.84989023	     -0.56418794	     65.64196590	     -0.67252781	      3.11965322	     73.09269118	      1.27570812	     30.42967593	     -7.55555611	     -7.49999951	     65.22852541	     -5.50194679	      0.49111465	     73.08962090	      1.27565453	     30.97169835	     -5.88121958	     -7.49999951	    -23.80875648	     -2.50095609	      0.75293587	     52.20300907	    -33.34545261	     10.06856747	    116.14355183	     77.03131585	     49.59830540	    -33.71240218	      5.60275511	    105.56283125	     80.98022542
      1.91000000	    -16.97390317	     -0.33942707	      1.65144185	     -0.37998076	      0.84760953	     -0.56418627	     66.01172417	     -0.68906406	      3.18728198	     73.43139493	      1.28161962	     30.58222041	     -7.48104101	     -7.49999953	     65.58423562	     -5.49782867	      0.43730086	     73.40548676	      1.28116743	     31.22890330	     -5.90759434	     -7.49999953	    -24.28256689	     -2.50794222	      1.06487456	     51.17886249	    -33.33063236	      9.39186666	    115.75376999	     76.22249421	     48.37955565	    -33.80509202	      4.86710978	    104.90793089	     80.07306426
      1.92000000	    -17.95272792	     -0.31939741	      1.61873719	     -0.37935985	      0.84476844	     -0.56439675	     67.15550797	     -0.75189041	      3.18723930	     73.66818757	      1.28575243	     30.55522409	     -7.51316404	     -7.49999954	     66.71530608	     -5.49133079	      0.34227456	     73.62941034	      1.28507564	     31.33734228	     -5.92378824	     -7.49999954	    -24.23717855	     -2.49465680	      1.38570220	     48.58021654	    -33.30598050	      7.64299013	    117.39798614	     76.12449938	     45.59465668	    -33.43728326	      2.72432363	    106.69979381	     79.97000019
      1.93000000	    -18.39793344	     -0.27396648	      1.55282975	     -0.37813880	      0.84170453	     -0.56485554	     67.80902776	     -0.74099914	      3.26707543	     74.03471083	      1.29214946	     30.70968426	     -7.50602285	     -7.49999956	     67.34408014	     -5.50052490	      0.26371781	     74.00008846	      1.29154519	     31.57294590	     -5.98223501	     -7.49999956	    -24.49415520	     -2.45777555	      1.71443104	     46.42234308	    -32.99753302	      6.40913878	    117.63298376	     75.95138126	     43.14578176	    -32.98584138	      1.22332814	    106.98710839	     79.74485191
      1.94000000	    -18.70159329	     -0.23213792	      1.43929717	     -0.37506509	      0.83798691	     -0.56547417	     68.30040872	     -0.66865813	      3.36834229	     74.47106137	      1.29976522	     30.96143050	     -7.51130096	     -7.49999960	     67.79723399	     -5.54978760	      0.18302808	     74.43840036	      1.29919518	     31.88783614	     -6.05654128	     -7.49999960	    -24.82487377	     -2.42484685	      1.97469759	     43.84737277	    -32.46899358	      5.02929030	    117.66705906	     75.86554157	     40.21208861	    -32.41901582	     -0.44004339	    107.13723552	     79.47355269
      1.95000000	    -18.85245016	     -0.17350337	      1.32870334	     -0.37129274	      0.83426470	     -0.56552334	     68.62873192	     -0.60662506	      3.46602008	     74.98378836	      1.30871399	     31.32359243	     -7.45376658	     -7.49999961	     68.06689276	     -5.61153352	      0.07636624	     74.93083102	      1.30778971	     32.30382772	     -6.02190372	     -7.49999961	    -25.21306603	     -2.41228814	      2.24586974	     41.26369489	    -32.08792884	      4.05790587	    117.43704661	     75.80249629	     37.39414364	    -31.94647517	     -1.46166046	    106.79658524	     79.29045461
      1.96000000	    -19.06233514	     -0.13536661	      1.25378500	     -0.36830314	      0.83117147	     -0.56482509	     69.00361082	     -0.51414703	      3.58160457	     75.53322440	      1.31830346	     31.63333048	     -7.55643296	     -7.49999963	     68.35708438	     -5.64961978	      0.04783796	     75.37541528	      1.31554917	     32.71220926	     -6.06481285	     -7.49999963	    -25.48922261	     -2.43472737	      2.45535504	     38.55942833	    -31.35210344	      2.66403151	    116.88539165	     75.67829107	     34.60051531	    -31.10471424	     -2.64622761	    106.20118901	     79.06156610
      1.97000000	    -18.70452576	     -0.10999838	      1.22957124	     -0.36648630	      0.82948295	     -0.56430436	     68.76341902	     -0.45728187	      3.64839237	     76.07851109	      1.32782051	     31.92519380	     -7.73596722	     -7.49999964	     68.06409581	     -5.65287348	      0.06495473	     75.82976883	      1.32347914	     33.03826400	     -6.24641486	     -7.49999964	    -26.21187273	     -2.36465299	      2.56173222	     36.80465609	    -30.70993766	      2.60748593	    115.42802809	     75.05159712	     32.65302835	    -30.50737929	     -2.56251223	    104.58687378	     78.31815655
      1.98000000	    -19.11092907	     -0.05402533	      1.11206592	     -0.36362520	      0.82604247	     -0.56400061	     69.32725517	     -0.31703179	      3.79030158	     76.64850477	      1.33776877	     32.29503804	     -7.70880952	     -7.49999965	     68.55015002	     -5.77112651	     -0.02574842	     76.34219706	      1.33242270	     33.58940429	     -6.00517789	     -7.49999965	    -25.86457315	     -2.45717358	      2.68308397	     34.27810973	    -29.53075414	      1.70701107	    114.03343840	     75.07617698	     30.21711163	    -29.58527160	     -3.11433644	    103.01658375	     78.22891111
      1.99000000	    -18.98141652	     -0.07224111	      1.01936088	     -0.35902796	      0.82252716	     -0.56392527	     69.27909720	     -0.14393146	      3.85742658	     77.22004582	      1.34774405	     32.72467028	     -7.75984323	     -7.49999967	     68.46608487	     -5.86901306	      0.00146509	     76.89877607	      1.34213683	     34.02807219	     -6.01524991	     -7.49999967	    -25.89188256	     -2.44110759	      2.70571104	     32.40764016	    -28.50899746	      1.54678265	    112.25838935	     75.06630812	     28.32300041	    -28.85824806	     -3.00318145	    101.00325983	     78.05783990
      2.00000000	    -18.80765091	      0.04793917	      0.87988889	     -0.35319667	      0.81920924	     -0.56386370	     69.16473408	      0.03609151	      4.09638918	     77.83805636	      1.35853037	     33.12056752	     -7.97555351	     -7.49999971	     68.22521905	     -5.91975505	     -0.10028092	     77.41378454	      1.35112543	     34.43301414	     -6.18032371	     -7.49999971	    -25.62898504	     -2.68568382	      3.20090541	     30.15197934	    -27.66292152	      0.34972966	    110.19087205	     80.78614078	     27.39002456	    -27.73143181	     -2.27701598	     97.91233715	     83.41588735
      2.01000000	    -18.45522861	      0.05546174	      0.72920893	     -0.34823323	      0.81713207	     -0.56425448	     68.79409219	      0.27075823	      4.22379963	     78.41329432	      1.36857016	     33.59642620	     -8.11819264	     -7.49999973	     67.78682716	     -6.04569615	     -0.11194633	     77.93016020	      1.36013788	     34.91823562	     -6.26020311	     -7.49999973	    -25.48757273	     -2.69298696	      3.09800320	     29.11742435	    -26.81208217	      0.79632466	    108.00837176	     79.31402870	     26.09463684	    -27.25390480	     -1.88782097	     95.29965518	     81.79823553
      2.02000000	    -18.08089693	      0.06681975	      0.69341342	     -0.34473622	      0.81580240	     -0.56505273	     68.35621551	      0.37934523	      4.32098967	     78.94531847	      1.37785574	     33.98471183	     -8.37922540	     -7.49999973	     67.32289992	     -6.01952312	     -0.05703761	     78.41847659	      1.36866061	     35.34048146	     -6.43111059	     -7.49999973	    -25.45903530	     -2.69926991	      2.95879022	     28.34758689	    -26.23975414	      0.91400440	    106.47469650	     78.59685535	     25.12940143	    -26.75246887	     -1.67081885	     93.59074329	     81.02675901
      2.03000000	    -17.97472343	      0.13228096	      0.57816260	     -0.34049478	      0.81501067	     -0.56475767	     68.16760692	      0.60591490	      4.55604995	     79.43363116	      1.38637840	     34.29710962	     -8.66030832	     -7.49999976	     67.03797366	     -6.10989127	     -0.13813948	     78.78410250	      1.37504199	     35.80058322	     -6.44355776	     -7.49999976	    -24.42231822	     -2.80575240	      3.36418203	     27.63695550	    -26.16254504	      1.38375937	    104.91397831	     81.34512283	     25.20932754	    -26.45487571	      0.10229317	     90.24638310	     83.39143364
      2.04000000	    -17.69071975	      0.13181570	      0.53698273	     -0.33437308	      0.81697610	     -0.56395292	     67.61819370	      0.77542136	      4.69426657	     79.74315248	      1.39178057	     34.53009887	     -8.88817619	     -7.49999976	     66.43782707	     -6.11432667	     -0.06863603	     78.96931628	      1.37827458	     36.00394086	     -6.59885196	     -7.49999976	    -23.86343023	     -2.88261810	      3.39999619	     27.13465728	    -26.05928745	      1.65458672	    105.01989561	     81.36642736	     24.30217997	    -26.35050400	      0.42513856	     89.96424489	     83.41133861
      2.05000000	    -17.42178420	      0.20547599	      0.38893071	     -0.32894423	      0.82183168	     -0.56313896	     66.84923543	      1.05260915	      4.98697634	     79.65015766	      1.39015750	     34.66665766	     -9.28592433	     -7.49999977	     65.59805889	     -6.22083009	     -0.16545767	     78.77686372	      1.37491565	     36.35150805	     -6.67455690	     -7.49999977	    -23.03955518	     -3.02522604	      3.43792402	     27.28402046	    -26.29849708	      2.70995894	    105.70294457	     81.43961551	     23.91135309	    -26.93984940	      1.12946983	     89.72240808	     83.46496971
      2.06000000	    -17.16026960	      0.23624838	      0.33660655	     -0.32584381	      0.82667710	     -0.56377858	     65.97852537	      1.20395354	      5.18126293	     79.33572214	      1.38466957	     34.64876436	     -9.60250747	     -7.49999978	     64.73529871	     -6.21172983	     -0.17641701	     78.43374468	      1.36892709	     36.47121365	     -6.77832033	     -7.49999978	    -22.16931441	     -3.07988856	      3.47154515	     28.19701686	    -27.09094019	      3.95668730	    107.12700785	     80.63664786	     23.96047649	    -27.76816065	      1.92670990	     90.71815133	     82.59558863
      2.07000000	    -16.94192244	      0.24886213	      0.24455921	     -0.32188718	      0.82945303	     -0.56531888	     65.10979671	      1.36637016	      5.36915942	     78.93468598	      1.37767016	     34.57666615	     -9.99744249	     -7.49999978	     63.87613082	     -6.19056698	     -0.18850850	     78.03192916	      1.36191409	     36.45834992	     -7.09436076	     -7.49999978	    -21.11986372	     -3.14092791	      3.62709234	     29.56980272	    -28.38287110	      4.80747807	    109.70061183	     80.78027166	     24.21766746	    -28.86994732	      2.54506229	     92.95133596	     82.79045922
      2.08000000	    -16.39740340	      0.24489218	      0.16195140	     -0.31586340	      0.83221562	     -0.56722567	     63.83911342	      1.49314056	      5.54754803	     78.48129981	      1.36975708	     34.66233719	    -10.25872309	     -7.49999980	     62.62758676	     -6.13716338	     -0.20973033	     77.60514385	      1.35446528	     36.49690993	     -7.23376950	     -7.49999980	    -20.44267797	     -2.94301308	      2.25864736	     33.40225540	    -29.11738080	      7.26643275	    111.82895318	     79.37741498	     22.53891321	    -30.94250776	     -0.12476858	     97.95789332	     83.00707778
      2.09000000	    -16.10809623	      0.24556276	     -0.01182010	     -0.31082071	      0.83740174	     -0.56900602	     62.75613231	      1.65530212	      5.77178787	     77.81334907	      1.35809914	     34.54641264	    -10.59285543	     -7.49999980	     61.56524088	     -6.12869699	     -0.28431811	     77.01203211	      1.34411352	     36.30279785	     -7.59025314	     -7.49999980	    -19.06610122	     -2.92679534	      2.63019569	     36.52423413	    -31.26522309	      7.38667752	    114.33508565	     79.26743278	     23.74321428	    -32.46573454	     -0.09553149	    101.17128726	     83.10006272
      2.10000000	    -15.62413932	      0.24234443	     -0.09562373	     -0.30786494	      0.84610647	     -0.57030746	     61.33463274	      1.69762525	      5.94208116	     76.86795856	      1.34159897	     34.30218213	    -10.86064193	     -7.49999982	     60.20997582	     -6.04067038	     -0.34561051	     76.15457013	      1.32914799	     35.97733276	     -7.89598558	     -7.49999982	    -18.02128032	     -2.48414108	      0.91176674	     43.11181607	    -31.75985155	     10.22656091	    114.60910622	     76.49929843	     23.08497044	    -34.96824511	     -4.00363396	    105.55590093	     83.64467082
      2.11000000	    -15.10184134	      0.23054069	     -0.19240856	     -0.30377637	      0.85551866	     -0.57058389	     59.74113952	      1.74947564	      6.12000674	     75.69987499	      1.32121206	     33.96426790	    -11.13571162	     -7.49999983	     58.68343928	     -5.97040111	     -0.42515838	     75.05789284	      1.31000736	     35.51641098	     -8.27768162	     -7.49999983	    -16.79629399	     -2.29726132	      0.97320176	     48.31520526	    -33.78686774	     10.82328587	    115.50880081	     76.07926569	     25.83267651	    -36.98346595	     -4.48176890	    108.02575560	     83.25856149
      2.12000000	    -14.49562226	      0.30181349	     -0.30763364	     -0.29736142	      0.86428563	     -0.57026248	     57.96402335	      1.76201449	      6.38762311	     74.41061618	      1.29871025	     33.63603468	    -11.34416448	     -7.49999983	     56.90813974	     -5.87351380	     -0.61546479	     73.73019856	      1.28683472	     34.96689197	     -8.63894646	     -7.49999983	    -15.59240527	     -2.23020958	      1.01720220	     54.47921816	    -35.93772339	     11.82043043	    115.76634309	     76.02715868	     29.48025741	    -39.62733700	     -4.72557324	    110.38628942	     83.56459954
      2.13000000	    -13.88216757	      0.24105909	     -0.36220583	     -0.29084321	      0.87363389	     -0.57038751	     56.05069628	      1.77920776	      6.51676651	     72.88806514	      1.27213672	     33.19690374	    -11.54679296	     -7.49999984	     55.06206263	     -5.81494388	     -0.67638123	     72.24366472	      1.26088981	     34.24915618	     -9.02956041	     -7.49999984	    -14.66147369	     -1.50892082	     -1.15418174	     64.26300356	    -35.63745198	     16.60226382	    113.51184033	     71.87880266	     30.22570151	    -44.53256113	     -9.34903359	    114.05704668	     83.60317299
      2.14000000	    -13.09831702	      0.30761348	     -0.40238905	     -0.28562366	      0.88594925	     -0.57081709	     53.81019904	      1.66117098	      6.71848880	     71.05673038	      1.24017390	     32.55115033	    -11.74461310	     -7.49999985	     52.82906091	     -5.66623438	     -0.88226154	     70.40036333	      1.22871813	     33.39145965	     -9.42098046	     -7.49999985	    -14.04657231	     -1.43158574	     -1.14673019	     71.95627161	    -37.79653901	     18.36639850	    112.11749483	     71.95016113	     35.71063044	    -48.54625157	     -9.22758307	    115.42210550	     83.31030054
      2.15000000	    -12.29651684	      0.33059089	     -0.42260828	     -0.28036281	      0.90116725	     -0.57142435	     51.30928333	      1.51125326	      6.85976862	     68.78022776	      1.20044143	     31.69509712	    -11.89142612	     -7.49999985	     50.41058280	     -5.50928327	     -1.05866762	     68.22895290	      1.19081987	     32.30752857	     -9.78029438	     -7.49999985	    -13.57748322	     -1.26821087	     -1.18783111	     79.43826208	    -40.03236548	     20.56118342	    110.38695937	     71.92398054	     41.08413175	    -52.55542785	     -9.35632172	    116.19608201	     83.28473279
      2.16000000	    -11.40168995	      0.34536555	     -0.42574605	     -0.27367348	      0.91825752	     -0.57194741	     48.43684286	      1.30226437	      6.93653203	     66.03448676	      1.15251921	     30.61572569	    -12.02970279	     -7.49999985	     47.68513114	     -5.34595470	     -1.26716381	     65.63667284	      1.14557605	     30.86250703	    -10.23622190	     -7.49999985	    -13.21141821	     -1.11794329	     -1.32561092	     86.37593417	    -42.09094490	     22.85411835	    108.51782100	     71.75682693	     46.19972919	    -56.72659602	     -9.40280373	    116.64717418	     82.96397074
      2.17000000	    -10.51359386	      0.29032883	     -0.41030158	     -0.26631211	      0.93598139	     -0.57251670	     45.36955985	      1.08677527	      6.91270214	     62.91426452	      1.09806106	     29.41238505	    -12.06186309	     -7.49999986	     44.81109280	     -5.22427101	     -1.45715400	     62.70232879	      1.09436209	     29.30052690	    -10.56659828	     -7.49999986	    -12.68770666	     -1.04846414	     -0.36701712	     93.61484531	    -45.68910108	     26.56166013	    106.99912716	     66.26170380	     54.27380660	    -59.41995011	     -5.51925498	    115.95990283	     79.12597643
      2.18000000	     -9.61017384	      0.31522003	     -0.38463333	     -0.25906423	      0.95512058	     -0.57285442	     42.10027621	      0.77937551	      6.87347785	     59.43309934	      1.03730327	     28.03888928	    -12.01142546	     -7.49999987	     41.68180524	     -5.03241388	     -1.72027326	     59.31240600	      1.03519677	     27.38206413	    -10.90818207	     -7.49999987	    -12.15633254	     -1.09643551	      0.20985188	    101.23681453	    -47.86221403	     30.87533778	    104.68670736	     64.69661941	     63.16149086	    -62.30609877	     -0.14377716	    114.84866389	     77.61057831
      2.19000000	     -8.69861708	      0.28480093	     -0.34091377	     -0.25141055	      0.97693437	     -0.57312746	     38.54645714	      0.47764210	      6.72543793	     55.39976186	      0.96690825	     26.28455929	    -11.89400411	     -7.49999987	     38.27661995	     -4.86694122	     -1.97025856	     55.41284711	      0.96713663	     25.18106371	    -11.21214404	     -7.49999987	    -11.63798279	     -0.99029921	      0.55983146	    109.05067222	    -48.88389238	     36.36185024	    101.87847991	     64.42173580	     72.58382449	    -64.58475695	      6.26759948	    113.50071544	     76.03384458
      2.20000000	     -7.78525243	      0.27492171	     -0.26139297	     -0.24255961	      1.00153472	     -0.57347076	     34.68644676	      0.10811659	      6.48141692	     50.79734846	      0.88658098	     24.12782307	    -11.75244106	     -7.49999987	     34.56188238	     -4.65298260	     -2.27231137	     50.90870388	      0.88852450	     22.54535457	    -11.43670238	     -7.49999987	    -11.06952964	     -0.99495618	      0.64952370	    115.31832635	    -49.45127763	     41.23959264	     99.33168706	     64.54333127	     82.53970715	    -66.58188647	     14.14943209	    112.05093879	     74.80116127
      2.21000000	     -6.91088409	      0.23588029	     -0.17928385	     -0.23292203	      1.02776499	     -0.57413901	     30.58129907	     -0.27368287	      6.07288745	     45.61184073	      0.79607680	     21.41543214	    -11.55070506	     -7.49999987	     30.61588100	     -4.45004436	     -2.64271488	     45.80962045	      0.79952871	     19.38137016	    -11.62054849	     -7.49999987	    -10.34802390	     -0.86538470	      0.39534246	    120.26709221	    -49.70935350	     45.90155914	     97.30821755	     64.69073400	     91.28745945	    -68.60833045	     21.64919038	    110.92371252	     74.29484468
      2.22000000	     -6.08388100	      0.12883433	     -0.08392892	     -0.22291508	      1.05442807	     -0.57546892	     26.30704228	     -0.60540250	      5.49476812	     39.92263101	      0.69678136	     18.14398884	    -11.32408490	     -7.49999987	     26.53438997	     -4.28228440	     -3.08355137	     40.26254669	      0.70271401	     15.77383802	    -11.63544683	     -7.49999987	     -9.44605648	     -0.27255016	     -0.32534312	    124.38984202	    -48.96601759	     50.63692049	     95.34691258	     65.09871045	     96.02745058	    -71.08034186	     25.39929567	    110.39605611	     74.83655043
      2.23000000	     -5.48208692	      0.10920995	     -0.00874323	     -0.21261971	      1.08085675	     -0.57708204	     22.29612309	     -1.01276171	      4.64227482	     34.14361746	      0.59591854	     14.59449561	    -10.58966430	     -7.49999987	     22.63596474	     -4.11267892	     -3.84553385	     34.52811782	      0.60262934	     11.90108269	    -11.06394802	     -7.49999987	     -8.38706484	     -0.29139190	      0.07957482	    128.98227773	    -50.66023894	     56.56834847	     94.89811058	     65.42356719	    105.17882089	    -71.89944482	     34.88333967	    109.49422278	     74.64248157
      2.24000000	     -4.96864519	      0.15459891	      0.05620515	     -0.20161267	      1.10851227	     -0.57941228	     18.34619951	     -1.41538899	      3.65189868	     28.17818674	      0.49180214	     10.57476219	     -9.83447079	     -7.49999987	     18.75474055	     -3.88930488	     -4.89486066	     28.56623022	      0.49857477	      7.48044980	    -10.19962061	     -7.49999987	     -7.11551558	     -0.43326895	      0.04071118	    130.94841712	    -51.85571676	     59.70804131	     94.99134301	     64.05685871	    114.19920926	    -73.06909651	     44.99859128	    109.27920429	     71.97682283
      2.25000000	     -4.85947470	      0.12350134	      0.12964329	     -0.19092391	      1.13722930	     -0.58263887	     14.90827272	     -1.72539746	      2.26428172	     22.18006742	      0.38711520	      6.27022342	     -8.39583816	     -7.49999987	     15.48576326	     -3.69952924	     -6.14000103	     22.80588002	      0.39803770	      2.87806044	     -8.71595930	     -7.49999987	     -5.20728023	     -0.00612693	      0.05909606	    132.63858422	    -52.75109169	     63.51228941	     95.64432451	     64.50363234	    115.97893166	    -74.47706942	     47.94239296	    109.78732616	     72.89365481
      2.26000000	     -4.87051537	      0.16236265	      0.19353291	     -0.18220625	      1.16610131	     -0.58519745	     11.95994845	     -2.02122404	      0.54989465	     16.62514767	      0.29016357	      1.90927005	     -6.47507855	     -7.49999987	     12.72379838	     -3.39967262	     -7.63059567	     17.57396005	      0.30672347	     -1.67493974	     -6.71220904	     -7.49999987	     -3.42883792	      0.27358696	      0.17753672	    134.34689437	    -54.55241863	     67.65462373	     97.33553174	     64.94790117	    117.83634639	    -76.28728243	     51.36437579	    110.70704565	     73.82885970
      2.27000000	     -4.97775841	      0.31754656	      0.28647435	     -0.17550926	      1.19289579	     -0.58576131	      9.64035629	     -2.29729406	     -1.33702750	     11.96024481	      0.20874565	     -1.83366981	     -4.14316639	     -7.49999987	     10.57928977	     -2.94500304	     -9.15395706	     13.21414902	      0.23063041	     -5.79586952	     -4.53748869	     -7.49999987	     -2.18636187	     -0.14753580	      0.07464144	    137.00948618	    -58.05328307	     72.92009979	    100.56231131	     61.71378080	    133.80845549	    -78.48742461	     69.95064490	    112.35997317	     69.87478633
      2.28000000	     -5.34758572	      0.44643674	      0.31293693	     -0.16994069	      1.21571558	     -0.58506613	      8.10611575	     -2.40298647	     -2.83933936	      8.25447056	      0.14406769	     -4.94564165	     -2.20297212	     -7.49999987	      9.18861568	     -2.48692585	    -10.55578923	      9.85812472	      0.17205673	     -9.13675780	     -2.60696712	     -7.49999987	     -0.47524841	     -0.29684033	      0.80337671	    140.40637736	    -61.64674435	     78.76353227	    103.99194082	     59.21439138	    139.28034266	    -79.67503295	     77.60322673	    113.68127403	     69.37920054
      2.29000000	     -5.74063166	      0.54528916	      0.43986241	     -0.16564957	      1.23509281	     -0.58447098	      7.04811920	     -2.41409090	     -4.27250891	      5.52018837	      0.09634546	     -7.22772183	     -0.51266188	     -7.49999987	      8.28614420	     -2.03583546	    -11.42875703	      7.48986192	      0.13072275	    -11.77667838	     -1.42312185	     -7.49999987	      1.06696899	     -0.46534425	      1.75615429	    145.54870422	    -65.44415662	     86.00606699	    107.47184948	     59.34464500	    142.66629091	    -80.43252677	     83.13704500	    114.71122929	     70.28257830
